{"type":"FeatureCollection","features":[{"type":"Feature","properties":{"kind":"land"},"geometry":{"type":"LineString","coordinates":[[35.9199,4.6198],[35.8456,4.7027],[35.7631,4.808],[35.7561,4.9505],[35.7792,5.1056],[35.8003,5.1569],[35.7884,5.2081],[35.7914,5.2786],[35.745,5.344],[35.4687,5.4191],[35.424,5.4133],[35.3779,5.3852],[35.3253,5.3649],[35.2876,5.3841],[35.2646,5.412],[35.2638,5.4579],[35.2683,5.4923]]}},{"type":"Feature","properties":{"kind":"land"},"geometry":{"type":"LineString","coordinates":[[24.1474,8.6656],[24.1948,8.6534],[24.2209,8.6083],[24.18,8.4611],[24.2084,8.3691],[24.2914,8.2914],[24.3755,8.2585],[24.4561,8.2394],[24.7367,8.1915],[24.8533,8.1375],[25.0072,7.9649],[25.2004,7.8079],[25.2474,7.7246],[25.2387,7.649],[25.1813,7.5572],[25.1901,7.5193],[25.279,7.4275],[25.3807,7.3334],[25.5666,7.2287],[25.889,7.0649],[26.0365,6.9552],[26.0869,6.8721],[26.1693,6.7818],[26.2845,6.699],[26.3618,6.6353],[26.3086,6.4553],[26.3246,6.3963],[26.3534,6.3449],[26.4205,6.2742],[26.4475,6.183],[26.5143,6.0692],[26.5937,6.0175],[26.7263,5.9982],[26.7964,5.9455],[26.9423,5.8549],[27.0834,5.7768],[27.1439,5.723],[27.1812,5.6752],[27.2134,5.6188],[27.2291,5.5625],[27.2325,5.4408],[27.2567,5.2897],[27.3325,5.1864]]}},{"type":"Feature","properties":{"kind":"land"},"geometry":{"type":"LineString","coordinates":[[27.4033,5.1092],[27.115,5.1978],[27.0718,5.1997],[27.0206,5.1844],[26.8701,5.0757],[26.8221,5.0624],[26.7675,5.0719],[26.6326,5.0852],[26.1735,5.1712],[25.82,5.2537],[25.7139,5.2837],[25.5251,5.3121],[25.4001,5.2559],[25.2831,5.0627],[25.2493,5.0246],[25.0652,4.9674],[24.9784,4.983],[24.7655,4.9301],[24.4371,5.01],[24.3198,4.9942],[24.2277,4.9539],[23.9917,4.8663],[23.8484,4.8163],[23.6818,4.7708],[23.5236,4.7013],[23.4172,4.6631],[23.3129,4.6635],[23.2188,4.703],[23.1159,4.7369],[22.9929,4.7439],[22.8646,4.7239],[22.7557,4.6467],[22.7117,4.5918],[22.6172,4.4456],[22.5056,4.2077],[22.4618,4.1597],[22.4497,4.1551],[22.4221,4.1349],[22.0,4.2326]]}},{"type":"Feature","properties":{"kind":"land"},"geometry":{"type":"LineString","coordinates":[[35.2683,5.4923],[35.2525,5.511],[35.1645,5.5812],[35.0819,5.6731],[35.0319,5.7749],[34.9836,5.8583],[34.959,6.0451],[34.8978,6.1598],[34.8381,6.3001],[34.7492,6.5679],[34.7107,6.6603],[34.6387,6.7221],[34.5628,6.7798],[34.4843,6.8984],[34.2793,7.0028],[34.2004,7.0846],[34.0642,7.2257],[34.0302,7.297],[34.0204,7.368],[33.978,7.4346],[33.9025,7.5095],[33.6661,7.671],[33.601,7.6904],[33.5163,7.7078],[33.3923,7.7237],[33.226,7.7607],[33.0808,7.8237],[33.0147,7.8686],[32.9989,7.8995],[33.0126,7.9515],[33.0652,8.0405],[33.1652,8.2511],[33.2343,8.3964],[33.2811,8.4373],[33.4094,8.4477],[33.5453,8.4434],[33.6448,8.4326],[33.785,8.4311],[33.9533,8.4435],[34.0198,8.4921],[34.0728,8.5453],[34.0946,8.5822],[34.1017,8.6763],[34.1016,8.7519],[34.091,9.0413],[34.0846,9.2185],[34.0771,9.421],[34.0781,9.4607]]}},{"type":"Feature","properties":{"kind":"land"},"geometry":{"type":"LineString","coordinates":[[22.8601,10.9197],[22.8173,10.9272],[22.7302,10.954],[22.6241,10.9774],[22.4939,10.9962],[22.3698,10.9515],[22.2359,10.8942],[22.1936,10.8514],[22.1563,10.8261],[22.0971,10.8301],[22.0431,10.8227],[22.0138,10.782],[22.0,10.7693]]}},{"type":"Feature","properties":{"kind":"land"},"geometry":{"type":"LineString","coordinates":[[33.9761,4.2202],[34.1769,4.4191],[34.3802,4.6207]]}},{"type":"Feature","properties":{"kind":"land"},"geometry":{"type":"LineString","coordinates":[[37.5,4.0348],[37.3825,4.1108],[37.1546,4.2545],[36.9056,4.4115],[36.8483,4.4273],[36.8236,4.4301],[36.553,4.4372],[36.2718,4.4447],[36.082,4.4497],[36.022,4.4681],[35.9787,4.5038],[35.9199,4.6198]]}},{"type":"Feature","properties":{"kind":"land"},"geometry":{"type":"LineString","coordinates":[[33.9761,4.2202],[33.7416,3.9853],[33.5684,3.8117],[33.5395,3.7871],[33.4894,3.7551],[33.3243,3.7543],[33.1541,3.7747],[32.9972,3.8802],[32.838,3.7985],[32.7372,3.7727],[32.6769,3.7632],[32.5348,3.75],[32.3357,3.7062],[32.2455,3.6513],[32.1967,3.6078],[32.1563,3.528],[32.1359,3.5197],[32.0995,3.5292],[32.0482,3.5612],[31.9419,3.6076],[31.8883,3.7091],[31.8387,3.7705],[31.7981,3.8026],[31.6289,3.7015],[31.5471,3.6776],[31.48,3.6804],[31.3574,3.7376],[31.2219,3.7859],[31.1523,3.7856],[31.048,3.725],[30.9294,3.6341],[30.8681,3.5441],[30.8386,3.4907]]}},{"type":"Feature","properties":{"kind":"land"},"geometry":{"type":"LineString","coordinates":[[30.7512,1.5],[30.9425,1.6828],[31.1588,1.922],[31.2527,2.0446],[31.2561,2.0885],[31.274,2.1463],[31.2364,2.1913],[31.1914,2.2323],[31.1763,2.2701],[31.1376,2.2889],[31.0822,2.2881],[31.0454,2.3155],[31.0036,2.3694],[30.962,2.4033],[30.8301,2.4004],[30.7286,2.4554],[30.7299,2.5303],[30.7695,2.678],[30.8466,2.847],[30.8508,2.8937],[30.84,2.9335],[30.8214,2.9676],[30.7865,3.0013],[30.754,3.0418],[30.7792,3.1634],[30.8278,3.2826],[30.8676,3.3421],[30.9065,3.4089],[30.8953,3.4637],[30.8386,3.4907]]}},{"type":"Feature","properties":{"kind":"land"},"geometry":{"type":"MultiLineString","coordinates":[[[22.8601,10.9197],[22.8949,11.029],[22.9376,11.192],[22.9428,11.2672],[22.9227,11.3449],[22.8491,11.4033],[22.7834,11.41],[22.754,11.4398],[22.6974,11.4827],[22.641,11.5159],[22.5911,11.5799],[22.5564,11.6695],[22.581,11.9901],[22.5643,12.033],[22.4898,12.0447],[22.4724,12.0678],[22.4755,12.1293],[22.4353,12.3119],[22.3902,12.463],[22.4145,12.5464],[22.3523,12.6604],[22.2334,12.7095],[22.1212,12.6946],[22.0007,12.6719],[22.0,12.6719]],[[22.0,13.119],[22.158,13.2151],[22.2026,13.2693],[22.2281,13.3296],[22.2326,13.3988],[22.2214,13.4716],[22.2133,13.5]]]}},{"type":"Feature","properties":{"kind":"land"},"geometry":{"type":"LineString","coordinates":[[34.8587,1.5],[34.8984,1.5565],[34.9413,1.5993],[34.9652,1.6434],[34.9764,1.7196],[34.9782,1.7736],[34.9775,1.8619],[34.964,2.0624],[34.914,2.2302],[34.883,2.4179],[34.9058,2.4797],[34.8662,2.5897],[34.8466,2.5957],[34.8145,2.6198],[34.7734,2.7234],[34.7425,2.8181],[34.7233,2.8419],[34.5891,2.9248],[34.5226,3.12],[34.4479,3.1635],[34.4072,3.3575],[34.3994,3.4127],[34.4419,3.6062],[34.4377,3.6506],[34.3929,3.6915],[34.2671,3.7332],[34.1651,3.813],[34.1782,3.8409],[34.1857,3.8698],[34.132,3.8892],[33.9761,4.2202]]}},{"type":"Feature","properties":{"kind":"land"},"geometry":{"type":"LineString","coordinates":[[28.9996,9.6102],[29.1223,9.6747],[29.2424,9.7181],[29.4732,9.7686],[29.5574,9.8483],[29.604,9.9214],[29.6055,10.0651],[29.691,10.1219],[29.9579,10.2503],[30.0031,10.2774],[30.4747,9.979],[30.7393,9.7427],[30.7554,9.7312],[30.7692,9.7268],[30.7949,9.7459],[30.827,9.7563],[30.9403,9.7594],[31.1545,9.7709],[31.2249,9.7992],[31.6549,10.2212],[31.792,10.3832],[31.8543,10.4791],[31.933,10.6625],[32.4042,11.0578],[32.4208,11.0891],[32.4254,11.1139],[32.3542,11.2469],[32.3388,11.3145],[32.3358,11.4186],[32.3499,11.5804],[32.3449,11.6827],[32.3353,11.716],[32.0723,12.0067],[32.7367,12.0097],[32.7383,12.0337],[32.7231,12.0929],[32.7158,12.1393],[32.7202,12.1888],[32.7189,12.2188],[33.1993,12.2173],[33.1931,12.135],[33.1351,11.9416],[33.1361,11.8256],[33.1225,11.6931],[33.1191,11.6824],[33.0947,11.6375],[33.073,11.5915],[33.1722,10.8502],[33.1647,10.8192],[33.1383,10.773],[33.1315,10.7577],[33.1408,10.7379],[33.3607,10.6578],[33.3799,10.6462],[33.4591,10.5508],[33.8922,10.199],[33.9071,10.1814],[33.9519,10.071],[33.9584,10.0277],[33.9573,10.0072],[33.9462,9.9409],[33.9499,9.9111],[33.9573,9.8914],[33.9625,9.8558],[33.895,9.7176],[33.874,9.6268],[33.8678,9.5503],[33.8715,9.5061],[33.8909,9.4622],[34.0768,9.4615]]}},{"type":"Feature","properties":{"kind":"land"},"geometry":{"type":"LineString","coordinates":[[24.1474,8.6656],[24.1604,8.6963],[24.2135,8.7678],[24.3001,8.8142],[24.5319,8.8869],[24.5448,8.9149],[24.5494,9.0068],[24.5683,9.0517],[24.648,9.1791],[24.6594,9.2299],[24.6629,9.3381],[24.6737,9.3893],[24.6967,9.4257],[24.7604,9.4889],[24.7826,9.5273],[24.7922,9.6103],[24.7852,9.7746],[24.7949,9.8102],[24.8177,9.8396],[24.9638,9.9888],[25.0029,10.0553],[25.0162,10.1152],[25.0148,10.1759],[25.0236,10.2358],[25.067,10.2938],[25.104,10.3118],[25.2117,10.3299],[25.2852,10.3185],[25.7494,10.4074],[25.798,10.4205],[25.8582,10.4065],[25.8852,10.3461],[25.8828,10.2496],[25.8915,10.2027],[25.9191,10.1694],[26.0006,10.1234],[26.057,10.0468],[26.087,10.0185],[26.1695,9.9659],[26.5513,9.5258],[26.6587,9.4841],[26.7632,9.4992],[26.9705,9.5906],[27.0742,9.6138],[27.7998,9.5879],[27.8808,9.6016]]}},{"type":"Feature","properties":{"kind":"land"},"geometry":{"type":"LineString","coordinates":[[27.8808,9.6016],[27.9962,9.3788],[28.049,9.3286],[28.8445,9.3261],[28.8294,9.3888],[28.8395,9.4591],[28.9323,9.5495],[28.9996,9.6102]]}},{"type":"Feature","properties":{"kind":"land"},"geometry":{"type":"LineString","coordinates":[[34.0781,9.4607],[34.0793,9.5135],[34.1203,9.7297],[34.1591,9.8534],[34.1852,9.9186],[34.2915,10.1248],[34.3112,10.1909],[34.3148,10.2516],[34.2757,10.5281],[34.344,10.6586],[34.4314,10.7878],[34.508,10.8429],[34.5718,10.8802],[34.6017,10.8646],[34.675,10.8049],[34.7712,10.7462],[34.8162,10.7592],[34.8823,10.8106],[34.9314,10.8648],[34.9249,10.9621],[34.9692,11.1618],[34.9607,11.2768],[35.0079,11.4199],[35.0596,11.621],[35.0827,11.7483],[35.1124,11.8166],[35.2525,11.957],[35.3728,12.1556],[35.4496,12.3006],[35.5961,12.5373],[35.6702,12.6238],[35.7306,12.661],[35.8206,12.6849],[35.9876,12.7063],[36.1075,12.7265],[36.1252,12.7571],[36.1353,12.8053],[36.1371,12.9111],[36.1601,13.0933],[36.2122,13.2711],[36.2735,13.4057],[36.3069,13.4669],[36.3289,13.5]]}},{"type":"Feature","properties":{"kind":"land"},"geometry":{"type":"LineString","coordinates":[[27.3325,5.1864],[27.4033,5.1092],[27.4392,5.0392],[27.491,4.9676],[27.6642,4.846],[27.7193,4.7783],[27.7614,4.7032],[27.7881,4.6447],[27.8416,4.5978],[27.9166,4.5679],[27.9807,4.5321],[28.0198,4.4794],[28.0786,4.4248],[28.1921,4.3502],[28.2473,4.3485],[28.311,4.338],[28.3672,4.3187],[28.4275,4.3242],[28.5248,4.3729],[28.6395,4.4545],[28.7271,4.505],[28.9394,4.4871],[29.0574,4.4459],[29.1514,4.3882],[29.2249,4.3919],[29.3849,4.4984],[29.4697,4.6118],[29.5521,4.636],[29.6769,4.5869],[29.7799,4.481],[29.8702,4.3271],[29.934,4.2685],[30.0214,4.1777],[30.1949,3.9819],[30.4207,3.8839],[30.5083,3.8357],[30.5369,3.7872],[30.5535,3.7229],[30.5594,3.6528],[30.5867,3.6242],[30.6477,3.6341],[30.6999,3.6441],[30.7572,3.6242],[30.797,3.5732],[30.8169,3.5334],[30.8386,3.4907]]}},{"type":"Feature","properties":{"kind":"land"},"geometry":{"type":"LineString","coordinates":[[22.8601,10.9197],[22.9307,10.7953],[22.9644,10.7518],[23.2559,10.4578],[23.3124,10.3879],[23.4566,10.1743],[23.5451,10.0301],[23.6463,9.8229],[23.6562,9.7104],[23.6428,9.6139],[23.6227,9.3406],[23.5961,9.2619],[23.4683,9.1148],[23.4628,9.0485],[23.4891,8.9933],[23.528,8.9706],[23.5519,8.9432],[23.5373,8.8158],[23.5832,8.7658],[23.6793,8.7325],[23.9219,8.7097],[24.0482,8.6913],[24.1474,8.6656]]}},{"type":"Feature","properties":{"kind":"disputed"},"geometry":{"type":"LineString","coordinates":[[35.9199,4.6198],[35.7275,4.62],[35.5349,4.6201],[35.3424,4.6202],[35.1501,4.6203],[34.9575,4.6204],[34.7651,4.6205],[34.5727,4.6206],[34.3802,4.6207]]}},{"type":"Feature","properties":{"kind":"disputed"},"geometry":{"type":"LineString","coordinates":[[27.8808,9.6016],[27.8235,9.7456],[27.8235,10.1592],[28.9795,10.1592],[28.9794,9.5917]]}}]}