{
    "type": "FeatureCollection",
    "name": "africa-mask",
    "features": [
        {
            "type": "Feature",
            "properties": {},
            "geometry": {
                "type": "MultiPolygon",
                "coordinates": [
                    [
                        [
                            [
                                -180,
                                -90
                            ],
                            [
                                180,
                                -90
                            ],
                            [
                                180,
                                90
                            ],
                            [
                                -180,
                                90
                            ],
                            [
                                -180,
                                -90
                            ]
                        ],
                        [
                            [
                                -11.4,
                                6.8
                            ],
                            [
                                -12.4,
                                7.3
                            ],
                            [
                                -12.9,
                                7.8
                            ],
                            [
                                -13.2,
                                8.9
                            ],
                            [
                                -14.1,
                                9.9
                            ],
                            [
                                -14.6,
                                10.2
                            ],
                            [
                                -14.8,
                                10.9
                            ],
                            [
                                -15.7,
                                11.5
                            ],
                            [
                                -16.1,
                                11.5
                            ],
                            [
                                -16.3,
                                12.0
                            ],
                            [
                                -16.6,
                                12.2
                            ],
                            [
                                -16.8,
                                13.2
                            ],
                            [
                                -16.7,
                                13.6
                            ],
                            [
                                -17.1,
                                14.4
                            ],
                            [
                                -17.6,
                                14.7
                            ],
                            [
                                -17.2,
                                14.9
                            ],
                            [
                                -16.7,
                                15.6
                            ],
                            [
                                -16.5,
                                16.1
                            ],
                            [
                                -16.6,
                                16.7
                            ],
                            [
                                -16.3,
                                17.2
                            ],
                            [
                                -16.1,
                                18.1
                            ],
                            [
                                -16.4,
                                19.6
                            ],
                            [
                                -16.3,
                                20.1
                            ],
                            [
                                -16.5,
                                20.6
                            ],
                            [
                                -17.1,
                                21.0
                            ],
                            [
                                -17.0,
                                21.9
                            ],
                            [
                                -16.6,
                                22.2
                            ],
                            [
                                -16.3,
                                22.7
                            ],
                            [
                                -16.3,
                                23.0
                            ],
                            [
                                -16.0,
                                23.7
                            ],
                            [
                                -15.4,
                                24.4
                            ],
                            [
                                -15.1,
                                24.5
                            ],
                            [
                                -14.8,
                                25.1
                            ],
                            [
                                -14.8,
                                25.6
                            ],
                            [
                                -14.4,
                                26.2
                            ],
                            [
                                -13.8,
                                26.6
                            ],
                            [
                                -13.1,
                                27.6
                            ],
                            [
                                -12.6,
                                28.0
                            ],
                            [
                                -11.7,
                                28.1
                            ],
                            [
                                -9.6,
                                29.9
                            ],
                            [
                                -9.8,
                                31.2
                            ],
                            [
                                -9.3,
                                32.6
                            ],
                            [
                                -8.7,
                                33.2
                            ],
                            [
                                -6.9,
                                34.1
                            ],
                            [
                                -5.9,
                                35.8
                            ],
                            [
                                -5.2,
                                35.8
                            ],
                            [
                                -4.6,
                                35.3
                            ],
                            [
                                -3.6,
                                35.4
                            ],
                            [
                                -2.2,
                                35.2
                            ],
                            [
                                -1.2,
                                35.7
                            ],
                            [
                                -0.1,
                                35.9
                            ],
                            [
                                0.5,
                                36.3
                            ],
                            [
                                1.5,
                                36.6
                            ],
                            [
                                4.8,
                                36.9
                            ],
                            [
                                5.3,
                                36.7
                            ],
                            [
                                6.3,
                                37.1
                            ],
                            [
                                7.3,
                                37.1
                            ],
                            [
                                7.7,
                                36.9
                            ],
                            [
                                8.4,
                                37.0
                            ],
                            [
                                9.5,
                                37.4
                            ],
                            [
                                10.2,
                                37.2
                            ],
                            [
                                10.2,
                                36.7
                            ],
                            [
                                11.0,
                                37.1
                            ],
                            [
                                11.1,
                                36.9
                            ],
                            [
                                10.6,
                                36.4
                            ],
                            [
                                10.6,
                                36.0
                            ],
                            [
                                10.9,
                                35.7
                            ],
                            [
                                10.8,
                                34.8
                            ],
                            [
                                10.2,
                                34.3
                            ],
                            [
                                10.3,
                                33.8
                            ],
                            [
                                10.9,
                                33.8
                            ],
                            [
                                11.1,
                                33.3
                            ],
                            [
                                11.5,
                                33.1
                            ],
                            [
                                12.7,
                                32.8
                            ],
                            [
                                13.1,
                                32.9
                            ],
                            [
                                13.9,
                                32.7
                            ],
                            [
                                15.2,
                                32.3
                            ],
                            [
                                15.7,
                                31.4
                            ],
                            [
                                18.0,
                                30.8
                            ],
                            [
                                19.1,
                                30.3
                            ],
                            [
                                20.1,
                                31.0
                            ],
                            [
                                19.8,
                                31.8
                            ],
                            [
                                20.1,
                                32.2
                            ],
                            [
                                20.9,
                                32.7
                            ],
                            [
                                21.5,
                                32.8
                            ],
                            [
                                22.9,
                                32.6
                            ],
                            [
                                23.2,
                                32.2
                            ],
                            [
                                24.9,
                                31.9
                            ],
                            [
                                25.2,
                                31.6
                            ],
                            [
                                26.5,
                                31.6
                            ],
                            [
                                28.9,
                                30.9
                            ],
                            [
                                30.1,
                                31.5
                            ],
                            [
                                31.0,
                                31.6
                            ],
                            [
                                31.7,
                                31.4
                            ],
                            [
                                32.0,
                                30.9
                            ],
                            [
                                32.2,
                                31.3
                            ],
                            [
                                33.8,
                                31.0
                            ],
                            [
                                34.3,
                                31.2
                            ],
                            [
                                34.9,
                                29.5
                            ],
                            [
                                34.1,
                                27.8
                            ],
                            [
                                33.9,
                                27.6
                            ],
                            [
                                33.1,
                                28.4
                            ],
                            [
                                32.4,
                                29.9
                            ],
                            [
                                32.3,
                                29.8
                            ],
                            [
                                32.7,
                                28.7
                            ],
                            [
                                34.1,
                                26.1
                            ],
                            [
                                35.7,
                                23.9
                            ],
                            [
                                35.5,
                                23.8
                            ],
                            [
                                35.5,
                                23.1
                            ],
                            [
                                36.9,
                                22.0
                            ],
                            [
                                37.2,
                                21.0
                            ],
                            [
                                37.0,
                                20.8
                            ],
                            [
                                37.1,
                                19.8
                            ],
                            [
                                37.5,
                                18.6
                            ],
                            [
                                38.4,
                                18.0
                            ],
                            [
                                39.3,
                                15.9
                            ],
                            [
                                41.2,
                                14.5
                            ],
                            [
                                43.3,
                                12.4
                            ],
                            [
                                43.3,
                                12.0
                            ],
                            [
                                42.7,
                                11.7
                            ],
                            [
                                43.5,
                                11.3
                            ],
                            [
                                43.7,
                                10.9
                            ],
                            [
                                44.1,
                                10.4
                            ],
                            [
                                44.6,
                                10.4
                            ],
                            [
                                46.6,
                                10.8
                            ],
                            [
                                48.4,
                                11.4
                            ],
                            [
                                49.3,
                                11.4
                            ],
                            [
                                50.3,
                                11.7
                            ],
                            [
                                50.7,
                                12.0
                            ],
                            [
                                51.1,
                                12.0
                            ],
                            [
                                51.0,
                                10.6
                            ],
                            [
                                50.5,
                                9.2
                            ],
                            [
                                49.5,
                                6.8
                            ],
                            [
                                48.6,
                                5.3
                            ],
                            [
                                46.6,
                                2.9
                            ],
                            [
                                43.1,
                                0.3
                            ],
                            [
                                42.0,
                                -0.9
                            ],
                            [
                                41.6,
                                -1.7
                            ],
                            [
                                40.9,
                                -2.1
                            ],
                            [
                                40.6,
                                -2.5
                            ],
                            [
                                40.3,
                                -2.6
                            ],
                            [
                                40.1,
                                -3.3
                            ],
                            [
                                39.8,
                                -3.7
                            ],
                            [
                                39.6,
                                -4.3
                            ],
                            [
                                39.2,
                                -4.7
                            ],
                            [
                                38.7,
                                -5.9
                            ],
                            [
                                38.8,
                                -6.5
                            ],
                            [
                                39.4,
                                -6.8
                            ],
                            [
                                39.5,
                                -7.1
                            ],
                            [
                                39.2,
                                -7.7
                            ],
                            [
                                39.2,
                                -8.5
                            ],
                            [
                                40.0,
                                -10.1
                            ],
                            [
                                40.3,
                                -10.3
                            ],
                            [
                                40.5,
                                -10.8
                            ],
                            [
                                40.6,
                                -14.2
                            ],
                            [
                                40.8,
                                -14.7
                            ],
                            [
                                40.1,
                                -16.1
                            ],
                            [
                                39.5,
                                -16.7
                            ],
                            [
                                37.4,
                                -17.6
                            ],
                            [
                                34.8,
                                -19.8
                            ],
                            [
                                34.7,
                                -20.5
                            ],
                            [
                                35.2,
                                -21.2
                            ],
                            [
                                35.4,
                                -22.1
                            ],
                            [
                                35.6,
                                -22.1
                            ],
                            [
                                35.4,
                                -23.5
                            ],
                            [
                                35.6,
                                -23.7
                            ],
                            [
                                35.5,
                                -24.1
                            ],
                            [
                                35.0,
                                -24.5
                            ],
                            [
                                33.0,
                                -25.4
                            ],
                            [
                                32.6,
                                -25.7
                            ],
                            [
                                32.7,
                                -26.1
                            ],
                            [
                                32.9,
                                -26.2
                            ],
                            [
                                32.5,
                                -28.3
                            ],
                            [
                                32.2,
                                -28.8
                            ],
                            [
                                31.3,
                                -29.4
                            ],
                            [
                                30.1,
                                -31.1
                            ],
                            [
                                28.2,
                                -32.8
                            ],
                            [
                                27.5,
                                -33.2
                            ],
                            [
                                25.9,
                                -33.7
                            ],
                            [
                                25.8,
                                -33.9
                            ],
                            [
                                25.2,
                                -33.8
                            ],
                            [
                                24.7,
                                -34.0
                            ],
                            [
                                23.6,
                                -33.8
                            ],
                            [
                                22.6,
                                -33.9
                            ],
                            [
                                20.7,
                                -34.4
                            ],
                            [
                                20.1,
                                -34.8
                            ],
                            [
                                19.6,
                                -34.8
                            ],
                            [
                                19.2,
                                -34.5
                            ],
                            [
                                18.9,
                                -34.4
                            ],
                            [
                                18.4,
                                -34.0
                            ],
                            [
                                18.4,
                                -34.1
                            ],
                            [
                                18.2,
                                -33.9
                            ],
                            [
                                18.2,
                                -33.3
                            ],
                            [
                                17.9,
                                -32.6
                            ],
                            [
                                18.2,
                                -32.4
                            ],
                            [
                                18.2,
                                -31.7
                            ],
                            [
                                16.3,
                                -28.6
                            ],
                            [
                                15.6,
                                -27.8
                            ],
                            [
                                15.2,
                                -27.1
                            ],
                            [
                                14.4,
                                -23.9
                            ],
                            [
                                14.3,
                                -22.1
                            ],
                            [
                                13.3,
                                -20.9
                            ],
                            [
                                12.6,
                                -19.1
                            ],
                            [
                                11.8,
                                -18.1
                            ],
                            [
                                11.6,
                                -16.7
                            ],
                            [
                                11.8,
                                -15.8
                            ],
                            [
                                12.5,
                                -13.6
                            ],
                            [
                                13.6,
                                -12.0
                            ],
                            [
                                13.7,
                                -10.7
                            ],
                            [
                                13.4,
                                -10.4
                            ],
                            [
                                12.9,
                                -9.2
                            ],
                            [
                                13.2,
                                -8.6
                            ],
                            [
                                12.7,
                                -6.9
                            ],
                            [
                                12.2,
                                -6.3
                            ],
                            [
                                12.3,
                                -6.1
                            ],
                            [
                                11.9,
                                -5.0
                            ],
                            [
                                9.4,
                                -2.1
                            ],
                            [
                                8.8,
                                -1.1
                            ],
                            [
                                9.5,
                                1.0
                            ],
                            [
                                9.3,
                                1.2
                            ],
                            [
                                9.8,
                                3.1
                            ],
                            [
                                9.4,
                                3.7
                            ],
                            [
                                8.9,
                                3.9
                            ],
                            [
                                8.7,
                                4.3
                            ],
                            [
                                8.5,
                                4.5
                            ],
                            [
                                8.5,
                                4.8
                            ],
                            [
                                7.5,
                                4.4
                            ],
                            [
                                7.1,
                                4.5
                            ],
                            [
                                6.7,
                                4.2
                            ],
                            [
                                5.9,
                                4.3
                            ],
                            [
                                5.4,
                                4.9
                            ],
                            [
                                5.0,
                                5.6
                            ],
                            [
                                4.3,
                                6.3
                            ],
                            [
                                1.9,
                                6.1
                            ],
                            [
                                -2.0,
                                4.7
                            ],
                            [
                                -2.9,
                                5.0
                            ],
                            [
                                -4.7,
                                5.2
                            ],
                            [
                                -5.8,
                                5.0
                            ],
                            [
                                -7.5,
                                4.3
                            ],
                            [
                                -8.0,
                                4.4
                            ],
                            [
                                -9.0,
                                4.8
                            ],
                            [
                                -11.4,
                                6.8
                            ]
                        ]
                    ]
                ]
            }
        }
    ]
}