{"type":"FeatureCollection","metadata":{"source":"geoBoundaries 6.0.0 WM/geoLab/geoBoundaries/600/ADM0","source_commit":"1289e40e366c7b320550be1ee0614a9472d572d4","buffer_m":50000},"features":[{"type":"Feature","properties":{"kind":"outside-analysis"},"geometry":{"type":"Polygon","coordinates":[[[-180.0,-85.0],[-180.0,85.0],[180.0,85.0],[180.0,-85.0],[-180.0,-85.0]],[[23.703444745913107,8.451455948273296],[23.698789746998653,8.406283132247419],[23.69872533231893,8.360872993080832],[23.703250581572323,8.315685123402375],[23.71231820486169,8.271176721215218],[23.72583507938061,8.22779798165578],[23.743663242311356,8.185987564342188],[23.771060126188708,8.129763738633555],[23.793717830028626,8.088800740596154],[23.820508506794027,8.050386353062075],[23.851144379655057,8.014932073663006],[23.885296745348466,7.982817666832146],[23.973520968902147,7.916974213715017],[24.009932797795805,7.8944251103345815],[24.04831844601605,7.875396319023942],[24.08833553610435,7.860057769266643],[24.177025981336875,7.83175241921373],[24.202198273640583,7.821379964146935],[24.24376424053843,7.808732854247294],[24.286354149150586,7.800102409284394],[24.329577799650156,7.795568005711095],[24.3517240361366,7.795366531360445],[24.398035835361863,7.777532678942298],[24.445452740652282,7.764994931656713],[24.51456128264275,7.752581865744337],[24.55959434681573,7.749847711793964],[24.57706349089964,7.7302070267587055],[24.609572871506476,7.700158606365714],[24.63035750236852,7.6757244867202665],[24.66188531556621,7.645215614420336],[24.696227208708997,7.617890127912441],[24.714488916052662,7.6060487834713975],[24.71366637616186,7.577659676440286],[24.71664898206566,7.534025467831141],[24.72385132137112,7.490884205516789],[24.73520467867075,7.448640263981848],[24.751621935297912,7.405612883215473],[24.761999445987076,7.36405998095474],[24.776270467872216,7.32368869748968],[24.79430820193259,7.284846451737084],[24.815949927912982,7.247881831181444],[24.841000740630406,7.21312652169833],[24.86923531192272,7.1808923488615175],[24.900399918084187,7.151468497399983],[24.934214714672816,7.125118933006126],[24.98254588088444,7.095858986115352],[25.016921587893076,7.051875206632966],[25.049311803737602,7.019333967540568],[25.08483975642987,6.990237888006228],[25.123139344694593,6.964886642991445],[25.184400050143644,6.930256682254526],[25.214391437340463,6.906141125001835],[25.251449464369802,6.881896421421307],[25.290703910220877,6.861384970009138],[25.33177898360207,6.844803257447974],[25.369421310691656,6.833739058972984],[25.400141604369832,6.81556722890494],[25.440912672846896,6.796629585183946],[25.557091855684586,6.753128113390456],[25.57969234445917,6.7356781664091905],[25.628025736695744,6.706981940574719],[25.653810198073916,6.6886251299958115],[25.676854167795334,6.654754851865271],[25.70700268320412,6.598337109693574],[25.730432609537445,6.5606908600862335],[25.757440164612028,6.5255214150692264],[25.787765006991258,6.493167033326593],[25.82111506907118,6.463938873031549],[25.837946013383352,6.451885994832029],[25.842829413371398,6.409416717672311],[25.848634939993957,6.382292031890331],[25.8534923358379,6.333288755173719],[25.863191909975,6.28724877380991],[25.888739482081032,6.213285836591221],[25.907569624481045,6.170602363008819],[25.930698507104484,6.1300908393548275],[25.957878878748943,6.092182796441736],[25.99677828475884,6.049985002331454],[25.999083557367616,6.017963366408872],[26.006725502402237,5.973751327665468],[26.01871061282217,5.930518808173542],[26.034919745499312,5.888691817022256],[26.05519226915482,5.848682423148764],[26.079327674489377,5.810884714391364],[26.107087569146078,5.775670935458486],[26.138198037407232,5.7433878418699305],[26.17235234128328,5.714353304812874],[26.209213936619353,5.688853199435299],[26.248419775043594,5.66713860639267],[26.28958386002898,5.649423353490299],[26.332301023057493,5.635881921047224],[26.3634806627947,5.6293164095755985],[26.391261345667242,5.615931642689358],[26.434834044450987,5.600214376135476],[26.469151141379225,5.591693204589219],[26.523555384777172,5.570029207419384],[26.5613880050696,5.537344715868833],[26.598803570916463,5.511605891797472],[26.638612085885512,5.489763585843312],[26.680411038870226,5.472038668244545],[26.72377790608177,5.458610405366668],[26.7702261217765,5.4494215436704625],[26.77812666867651,5.446317985418262],[26.79103815294148,5.437309253934985],[26.79466542162892,5.39014731738015],[26.80945328201642,5.280902414570246],[26.818106539248802,5.234949407919463],[26.831449516102985,5.190142429927474],[26.84933837244561,5.1469608651580705],[26.871580780730376,5.105866604687828],[26.94965488090323,4.977844404410242],[26.975147839234875,4.940389522103994],[27.008531228372505,4.901520979491333],[27.012249588895532,4.886978066853861],[27.026983117587783,4.846139352727002],[27.04555539810093,4.80691092039641],[27.067794354946805,4.7696547098356605],[27.093494205847477,4.734714406346417],[27.131291974171727,4.69423795351284],[27.154875707023375,4.66552324977677],[27.215169244013133,4.5990374381803765],[27.248624859856797,4.565807570553824],[27.285353964644887,4.536265942392142],[27.324955390371876,4.510734950331613],[27.360026894854908,4.493015210058274],[27.37402762196262,4.45197780893461],[27.392366642483903,4.410411557593982],[27.41477104889652,4.370908358336223],[27.441013665018083,4.333867485878002],[27.470828665792602,4.299663267973802],[27.503914272313594,4.26864132149704],[27.550028191185127,4.2349041975824955],[27.59076482676353,4.199645938809668],[27.628063280238894,4.174301540828969],[27.667697845626535,4.152828733505585],[27.70927200771492,4.13544228235806],[27.7334899540815,4.1280668833908],[27.766189134661463,4.0925721723488655],[27.80018347313016,4.062775529359133],[27.836977406828954,4.036549877906929],[27.876201197180393,4.014158567496079],[27.917460819505187,3.99582644320694],[27.9382462795548,3.9889978357641445],[27.954284800745494,3.9769746743809105],[27.99105505511147,3.9545607476399507],[28.029788093043962,3.9357775374953192],[28.070130286782316,3.9207964930482944],[28.11171338891278,3.9097543715031358],[28.13322622893995,3.9062057326398714],[28.15303043904001,3.8932269995939457],[28.19137259252084,3.8730873343106573],[28.23146341128078,3.8567423404726044],[28.27293247962913,3.8443430205311455],[28.315396707268953,3.8360039424888943],[28.35846384834393,3.831802186209308],[28.401736103592654,3.831776633437335],[28.475232161801337,3.8352824894308646],[28.52175051610023,3.8399404056587527],[28.56754089857449,3.849422157019246],[28.61210963184673,3.863625673797863],[28.654976113658666,3.882397988967292],[28.69567797450158,3.9055368720217767],[28.733776044053812,3.932792991362121],[28.768859073881234,3.9638725826758714],[28.792384753867886,3.9870006809144662],[28.81036064338746,3.996686104538191],[28.827375115332725,4.008203483135952],[28.8734478257237,4.027934463416753],[28.88116749790319,4.026967195931393],[28.91002074565273,4.014225281741781],[28.95033848612467,3.982856410273144],[28.987108520284753,3.957082727732317],[29.026247255275692,3.9351137767561952],[29.067366449085025,3.9171673310431236],[29.110058324030124,3.903421283765229],[29.15389959059326,3.8940118945270137],[29.198455621657722,3.8890324463883896],[29.243284736751633,3.888532325966757],[29.28794255486626,3.892516535557548],[29.331986373760483,3.9009456420501682],[29.37497953340064,3.9137361632056225],[29.4164957213185,3.930761387643335],[29.443242572719143,3.9433244888601187],[29.485033706074,3.965903564164072],[29.53393806211084,3.985591198910411],[29.548711906779115,3.9934072331872827],[29.55787104874256,3.9851446102666137],[29.599468164156796,3.9553170839985015],[29.650364283378373,3.8936868741169772],[29.682957516989212,3.862762118378344],[29.722158687731778,3.832925222284888],[29.750634358521793,3.803337452159205],[29.791671980308188,3.7695453257253084],[29.805868764069544,3.7374575835480717],[29.82837993363701,3.6978721473808447],[29.854739064399595,3.6607669032767096],[29.884677773260997,3.626518676388986],[29.91789145681547,3.5954752094494307],[29.95404239089719,3.5679516493601486],[29.99276315991784,3.5442273650012677],[30.033660381507232,3.5245431277806825],[30.07631868917073,3.509098682829351],[30.127585027437018,3.496609693400549],[30.14518977715208,3.445518701308163],[30.163863415571004,3.406486764170345],[30.186161517753405,3.3694302392735884],[30.21187909698826,3.3346887416005506],[30.240779926861443,3.3025806048673423],[30.27259871497239,3.273399977617181],[30.307043538331225,3.2474141416787057],[30.343798518204068,3.2248610769981587],[30.382526710120537,3.2059472946186274],[30.422873182907832,3.190845957158665],[30.464468258987043,3.1796953035569584],[30.54017357639488,3.163636169583553],[30.559632966854487,3.1442492781819436],[30.594692712190444,3.11571383652184],[30.63241388804536,3.090854844353635],[30.672417000424467,3.0699220707191537],[30.71429972802653,3.053125800087425],[30.757640954380424,3.040634733383793],[30.802004984778083,3.0325743051181497],[30.846945906376035,3.029025433034969],[30.89201204847843,3.0300237124581337],[30.936750499066513,3.035559063139917],[30.98071163311432,3.0455758319875708],[31.023453608133682,3.0599733505759366],[31.064546782724832,3.0786069419033195],[31.103578014666084,3.101289366453885],[31.14015479624831,3.1277926933343076],[31.17390918613047,3.157850578096684],[31.204501498944182,3.191160924880949],[31.23162371618382,3.227388906745423],[31.255002584560618,3.2661703145355783],[31.264534262166205,3.286288575500211],[31.30257824623609,3.2641625041750175],[31.34167814293299,3.2439167861405434],[31.382552762088526,3.2276078210152455],[31.42481144582075,3.2153912796130624],[31.468050394821585,3.207383735718251],[31.511856509491544,3.2036615628787115],[31.555811317425647,3.204260213005618],[31.59949495048446,3.209173883372462],[31.642490134255567,3.21835557498607],[31.68003459523399,3.230329886592404],[31.713985634067004,3.206195171505702],[31.7530589369489,3.183930567739459],[31.794139681067733,3.165694868280426],[31.846231769946552,3.1495929380814243],[31.864895117598255,3.1377594060810936],[31.904784327484876,3.117714595526614],[31.946445420919396,3.101740460902436],[31.989468969133295,3.0899937510488207],[32.107544219077965,3.0639848306178235],[32.152262336829075,3.0564825245166736],[32.19749881033672,3.053548326462268],[32.24279397542427,3.055211898269771],[32.28768760263548,3.06145620801117],[32.33172354910289,3.0722177074571504],[32.37445436864208,3.0873869787138033],[32.415445834263984,3.10680984343263],[32.45428132819209,3.130288923408845],[32.4905660557955,3.157585636936692],[32.523931041584824,3.1884226110026344],[32.554036867543054,3.2224864853073285],[32.580577116553926,3.2594310802509083],[32.60452678094137,3.3016577189152843],[32.74579810681713,3.3087687823057794],[32.79993951511991,3.314809185436803],[32.85294953448325,3.3273895034711787],[32.98746817254724,3.368088084596515],[33.02153865315789,3.3533290045466626],[33.06103248148651,3.34040956870268],[33.10153689064651,3.331205268550114],[33.14270686992059,3.325794307669646],[33.47486554629362,3.2976269624347627],[33.518739861201695,3.2960539576993653],[33.5625505803726,3.29878898050765],[33.60588048649958,3.3058057983390916],[33.64831695524119,3.3170374272893266],[33.689455862317025,3.332376772774945],[33.728905410051176,3.3516776491111235],[33.766289837833426,3.374756168252244],[33.801252982065414,3.4013924845916073],[33.83346165255648,3.4313328794495797],[34.566341469145826,4.180770514029791],[35.95001164386935,4.176892275739031],[35.994325842650895,4.178896295054341],[36.03821865802344,4.185263162991502],[36.081264524142746,4.19593082755115],[36.12304610298472,4.2107955669874],[36.163158302832926,4.229713000399917],[36.20121217876321,4.252499488624238],[36.23683867851422,4.278933911802738],[36.26969219860573,4.3087598065334705],[36.2994539173375,4.34168784217724],[36.32583487334967,4.377398612780921],[36.3485787607307,4.41554571817019],[36.367464414199766,4.455759105097867],[36.38230796064623,4.497648636924025],[36.39296461626059,4.54080785816679],[36.399330111619506,4.584817918413421],[36.40134173037493,4.629251618533362],[36.39897895062659,4.673677540900555],[36.39226368161091,4.717664224423351],[36.381260091999835,4.760784344607335],[36.36607402985089,4.802618858649451],[36.34685203806191,4.84276107568987],[36.32377997303656,4.880820612838976],[36.29708123812856,4.9164271984562795],[36.27269502379971,4.94581658814136],[36.272239195500504,4.977227891176944],[36.29212191508893,5.024968409233658],[36.30445022818504,5.0674682830271705],[36.31256064336265,5.110980461413969],[36.31637422745838,5.155086550805792],[36.315853284506034,5.199362345095421],[36.30994228152878,5.248407336893871],[36.31316152009566,5.281809145801111],[36.31495574125874,5.324496125619551],[36.31270927239522,5.367168589632918],[36.306441247579684,5.4094442012447255],[36.296206825451186,5.450944066497152],[36.2820967327748,5.491296124837054],[36.26423648943574,5.53013848313534],[36.242785320327926,5.567122663199742],[36.21793476241453,5.60191673361238],[36.18990697804278,5.634208297574485],[36.15895278836571,5.663707309551769],[36.1253494434275,5.690148694883798],[36.089398148077805,5.713294748144722],[36.05142136535885,5.732937287913208],[35.99193208410744,5.760214910918148],[35.96336991130598,5.7772642640270035],[35.906564643274805,5.806206884765573],[35.86424925083435,5.823797662724172],[35.820372286098205,5.837007960021651],[35.775386476822064,5.845701023589763],[35.72975616195405,5.849786717234298],[35.70482717678487,5.849480207164384],[35.646403457353294,5.863639167323641],[35.59998879251506,5.872342588220559],[35.561777788009636,5.87543143730043],[35.52218737887023,5.9032070572539],[35.46314880710748,6.002378244693743],[35.46283431887062,6.03416646965532],[35.457897520173596,6.078970850863625],[35.4456574612987,6.154987043891654],[35.43614147478688,6.199598410741077],[35.43050472733007,6.217122161025685],[35.4378845989223,6.241690485789066],[35.4469474614976,6.291142671325568],[35.46059094848304,6.346829582681863],[35.46883876579551,6.3923551544334725],[35.472381331699104,6.438488971646882],[35.47118012048076,6.484746832411797],[35.4652463424088,6.530643085508552],[35.45464088519591,6.57569571747514],[35.43947373628601,6.619431408310687],[35.419902889332434,6.661390503183848],[35.39613274357053,6.701131848067679],[35.368412010166914,6.738237438305286],[35.33146856731576,6.782730543747622],[35.30745097212553,6.820371803947875],[35.28123942813899,6.853688183121761],[35.2520145195057,6.884407670120263],[35.17969239141056,6.947229213173185],[35.143462778866244,6.9743997106512605],[35.104690282328484,6.997817019609896],[35.03782876686614,7.028001837640699],[34.98882389316363,7.044739291211955],[34.94085505705187,7.078786636304998],[34.90249519839458,7.109279070767363],[34.86394742497037,7.163269155816719],[34.83437774166746,7.197135896145531],[34.76120284547499,7.265378302164628],[34.72674606888919,7.291235343191575],[34.6899776573834,7.3137049435090615],[34.65123129643346,7.332582708949511],[34.610858830940984,7.347696835594119],[34.5832048405003,7.355145468738147],[34.574790021421464,7.370304800723933],[34.54888647294476,7.407579171781513],[34.519362761015365,7.442075399832671],[34.48651596432554,7.473445079413155],[34.47090219973468,7.485612153817775],[34.45442052481019,7.532557017623232],[34.43584136739457,7.571406263264627],[34.41756404095382,7.601787119906933],[34.40786889606036,7.623455588513505],[34.386904610253374,7.660490367659579],[34.361024507762835,7.697177809318941],[34.35321029342053,7.71464279211254],[34.33097761790509,7.75347671547829],[34.30499840938927,7.789929870264402],[34.27552645758013,7.823644535110229],[34.242850033359524,7.854289733411567],[34.207289085284685,7.881564502844066],[34.169192114135484,7.905200873390646],[34.12472677714267,7.926538036403058],[34.063392999966084,7.9778722970828],[34.03620001974392,7.9957213410930414],[34.05513011345682,8.008800464862135],[34.09177347436829,8.040355138100695],[34.10102416347214,8.045538566341625],[34.13247062678313,8.051735212757697],[34.17390330185322,8.064075875784615],[34.21397080684518,8.080285031649638],[34.25231004647333,8.10021562346615],[34.288573479007674,8.123686877348483],[34.32243224149023,8.150485932733107],[34.35357911136926,8.180369760873225],[34.38173127865596,8.213067354570102],[34.4066329042199,8.248282169853812],[34.431942685821625,8.294290672570627],[34.459233468915485,8.317520490105576],[34.490952530803,8.35059177537646],[34.51915611965014,8.386680218940164],[34.54355523811851,8.425416952921076],[34.56389953674929,8.466405986075777],[34.57997989229383,8.509228227207437],[34.591630576409464,8.553445745911082],[34.5987309917044,8.598606228345236],[34.6012069560364,8.644247583683418],[34.602456528610034,9.004490629896184],[34.60111094385704,9.040883267662199],[34.562849033138384,9.534026166628884],[34.55713631291896,9.578594023487936],[34.546985093709715,9.622375281457177],[34.532494220952294,9.66493645605982],[34.51380561826088,9.705855979059042],[34.49110294506445,9.744728380724858],[34.46460983431188,9.78116831913018],[34.43117161794097,9.817949767306075],[34.449323270064475,9.92655787236536],[34.454829166680604,9.976691155075946],[34.45466183632246,10.02711494347319],[34.45093724714814,10.089449036744877],[34.4458622636537,10.135008111573201],[34.43614792329538,10.179818795782824],[34.41772575419985,10.23278954748136],[34.41548650564583,10.245986405253797],[34.403410891143594,10.289703488314437],[34.38696416762273,10.331997628944867],[34.36631050950185,10.37244229909751],[34.34165671141364,10.410629453800771],[34.31325016074848,10.446173662664412],[34.2813763897515,10.478716019320464],[34.24635622975026,10.507927788362355],[34.20742589944277,10.53411628458488],[34.18248554730616,10.574606454374438],[34.154739492025385,10.614624893933229],[34.12280099854545,10.651461165329524],[34.0870383657226,10.684688733257246],[33.99492779605075,10.761441371103171],[33.829835898534206,10.95207473887592],[33.799895880434235,10.983451285797745],[33.76705373586644,11.011857551125194],[33.7316090782129,11.037033638783894],[33.691292223167466,11.059930040332544],[33.6057469165784,11.587172450067458],[33.625899669335475,11.659268185484873],[33.68668671864114,11.973729278447239],[33.69515998361606,11.986674438263334],[33.71563218656562,12.025852081137455],[33.732141391089144,12.06679895405287],[33.744529493925015,12.109126620074171],[33.75267729070705,12.152433425812301],[33.756505662632,12.196308294830278],[33.75597639081671,12.240334614821464],[33.75109258836835,12.284094182448625],[33.74189874351888,12.32717116900611],[33.728480370655845,12.369156069658052],[33.71096326969685,12.409649598923687],[33.689512397980565,12.448266495337482],[33.66433036265281,12.484639198814332],[33.635655545375336,12.518421365205162],[33.60375987503576,12.549291183838648],[33.568946267940674,12.576954465509475],[33.53154575867639,12.601147470387755],[33.4919143483666,12.621639447677497],[33.45042960038178,12.63823486152898],[33.40748701660205,12.650775280689299],[33.363496230043495,12.659140912629487],[33.318877051972116,12.663251766383372],[32.75081995225057,12.68773861159817],[32.705820414354065,12.687473515905591],[32.66105817866586,12.682882034439812],[32.61696394353214,12.674008161922092],[32.5739619180059,12.660937075507066],[32.53246568411396,12.643794311084719],[32.49287416784043,12.62274454664509],[32.455567760170126,12.597990004995184],[32.42090462766376,12.569768492000994],[32.389217249689736,12.53835109021321],[32.36080921666551,12.504039531179949],[32.335952320518686,12.467163272914773],[32.31488396512712,12.428076311841698],[32.30223664216335,12.397773855064724],[32.104708304558116,12.39687459573865],[32.05884455052821,12.394391103330872],[32.013459779464704,12.387408778521769],[31.969009763193633,12.375997577785048],[31.925940780254642,12.360271910468725],[31.884685076831442,12.340389481048367],[31.845656477718258,12.316549691859736],[31.809246194039893,12.288991623217807],[31.775818871891904,12.257991612297578],[31.74570892297953,12.223860456347028],[31.719217174775622,12.186940269675958],[31.696607873760577,12.147601027372602],[31.67810607102987,12.106236831808864],[31.663895415032364,12.063261940676458],[31.654116371513755,12.019106597530989],[31.648864885954882,11.974212707595902],[31.648191498981774,11.929029402886949],[31.65210092044255,11.884008541560501],[31.66055206314872,11.839600186769426],[31.673458532708374,11.796248110238116],[31.69068956547457,11.754385365255306],[31.71207140242323,11.714429972845107],[31.737389082786173,11.676780763531042],[31.766388637515412,11.641813415373873],[31.798779659161276,11.609876726863906],[31.930224103027186,11.492561053157914],[31.93593055252267,11.210688005031285],[31.93934494460796,11.16588108226584],[31.873877965223272,11.10392940368273],[31.773127454160964,11.048536812691827],[31.731761556060537,11.022828977578227],[31.693411536853237,10.992904402879514],[31.658515636093234,10.959105507859087],[31.62747218737572,10.921818972796553],[31.60063506930929,10.881471279140714],[31.415799681584225,10.567923820159876],[31.088657435573626,10.201373343015563],[30.953776368229263,10.200869506203459],[30.820797797983854,10.309018918921364],[30.772756838986982,10.343154552573129],[30.237616034365374,10.672840918778828],[30.198154038344704,10.694500990239868],[30.156719934314037,10.712198709124664],[30.113719221932694,10.725760803891932],[30.0695729267344,10.735054474947328],[30.024713433806458,10.739988709772584],[29.97958020294528,10.740515184645798],[29.92175794317455,10.73835437200629],[29.87189241155286,10.733766733574042],[29.822836606342115,10.723801616868363],[29.77518205160359,10.708579169490529],[29.729503164589286,10.688282902225879],[29.329175430152993,10.483249820585199],[29.290092247100034,10.460697545382331],[29.253461430230296,10.4344226980502],[29.21964312079576,10.40468401884558],[29.18896949661329,10.371774280647111],[29.161741506758464,10.33601738223491],[29.138225927357915,10.297765136574807],[29.11865276676514,10.25739378695401],[29.103213044394593,10.215300286380014],[29.099839826356625,10.202178078181772],[29.03424626557691,10.200049698284174],[28.9908902830387,10.193779313964098],[28.948344600665358,10.18341181184306],[28.907003065600094,10.169043213596492],[28.867248236578806,10.150806561335699],[28.829447809720104,10.128870671093866],[28.7939511903934,10.103438552785683],[28.76108624417522,10.074745512149317],[28.49941311127039,9.822872770406681],[28.478591533827654,9.801048351683775],[28.320996540899174,9.79926540620548],[28.29681862893133,9.844337034696915],[28.272007438728835,9.88083753543316],[28.243729050313917,9.914770657649843],[28.212251378328695,9.945813898337555],[28.177872990999205,9.97367216104862],[28.140920277495432,9.998080582911777],[28.101744338902318,10.018807073935411],[28.06071763271026,10.035654543372162],[28.018230403594597,10.04846279095691],[27.974686935771057,10.057110044130056],[27.930501664341133,10.061514125881812],[27.886095184734295,10.061633241561742],[27.755736326037866,10.05565627621546],[27.152207704354506,10.0758878261809],[27.097232508572052,10.074395557955722],[27.0428442951569,10.066349614301336],[26.89771731176042,10.035878078173223],[26.85051803192076,10.023300961581361],[26.804956087375068,10.005783626994603],[26.69460801140805,9.956428495844982],[26.68014876267807,9.959636949349363],[26.6471908720027,10.04973250047974],[26.631510561635693,10.087229649493459],[26.612493707852245,10.12318270621973],[26.590293091682554,10.15730108158779],[26.565087389672062,10.189308956589809],[26.537079747540297,10.218947526524826],[26.484856772665477,10.269443688126097],[26.45212263494393,10.330064708904933],[26.428276496219176,10.369292543026916],[26.400538074206416,10.405931741849031],[26.387922342242334,10.419485450852715],[26.382502204127306,10.460205587900687],[26.37244198614651,10.503035955874621],[26.358217677127293,10.544698757142154],[26.339962765513967,10.584798777610962],[26.31784916135229,10.622955522438039],[26.29208560793259,10.65880684590388],[26.26291573384759,10.692012409981908],[26.230615762583227,10.722256937764195],[26.179017431164333,10.76575539901644],[26.141843138652522,10.791935541833455],[26.102211098871088,10.814319661124163],[26.060517436193287,10.832684077603142],[26.017179100259465,10.846845310363147],[25.91001609443289,10.870026979513359],[25.868564421212703,10.876540349775546],[25.84787556834964,10.881666535250233],[25.802893419282945,10.888210036794172],[25.7574803166612,10.890302629627472],[25.712087202840518,10.887923799658955],[25.680558074644377,10.883133224193706],[25.664819703617013,10.884000212721954],[25.619235478873446,10.882006902790128],[25.57408665561234,10.875528621466284],[25.5298248012201,10.864630413183942],[25.504909417244924,10.855804759733383],[25.471155937528575,10.85151755421152],[25.451736757711668,10.847064474540815],[25.434344058809703,10.847607634214162],[25.388653845314575,10.844500313043445],[25.36764030768834,10.840956157190728],[25.318199263316952,10.8361172372896],[25.24316303126898,10.820582359912821],[25.204068836236637,10.810189280122668],[25.181183086199557,10.809716011301376],[25.13619641859098,10.804346334789757],[25.091977555988844,10.79459590566928],[25.048962835452354,10.780561214794385],[25.0364072643189,10.77504639689558],[24.98594821524199,10.760331423083178],[24.943093338427143,10.742382014115758],[24.877887431835187,10.71196759619561],[24.83922694932114,10.68843894201734],[24.80313309047634,10.661226915666509],[24.76996293377597,10.630601474556864],[24.740044274045488,10.596866294041632],[24.7175174694852,10.565679479724142],[24.69376075044653,10.53666476884793],[24.668654376601438,10.49876421218951],[24.64752696683035,10.458560100473829],[24.630590235245137,10.416458377441518],[24.58403707546938,10.253108711764286],[24.57721130095277,10.21034156318715],[24.575481241194765,10.18214279092842],[24.55242777061496,10.165156750707506],[24.51624451898199,10.131940013009297],[24.50088161633332,10.12284811893083],[24.464895392349565,10.096476041963038],[24.43170622150802,10.066732176974526],[24.401634195388606,10.033904339374573],[24.37496899312846,9.998310038767606],[24.337383164520297,9.938721946162767],[24.318347959262795,9.898912374430015],[24.303328242469316,9.857450562174028],[24.292465707889388,9.81473194462939],[24.285862307698782,9.771163780008603],[24.28357934291709,9.727161266070254],[24.2846088107171,9.70514553253218],[24.25528844634176,9.655241383818298],[24.24955448136612,9.641975454226914],[24.225773237341755,9.603962039516666],[24.20526343961093,9.562049998624984],[24.199805475432484,9.547146548371044],[24.170169566458473,9.50243485707582],[24.150115858023423,9.462912602627972],[24.13406737922266,9.421630207288235],[24.118766434202264,9.37566365635712],[24.106602181987338,9.331795468724454],[24.09895602303523,9.28693237492724],[24.09590395858906,9.241530446658667],[24.09856054403386,9.18813038306171],[24.090239273079426,9.127411875008766],[24.08341786651225,9.118916212025825],[24.019194165676996,9.078975942615234],[23.981026834333278,9.052247702521479],[23.945832116177545,9.021770596239126],[23.91398141015926,8.987867283009185],[23.885810440117886,8.950896516295392],[23.847188769315963,8.894381185153929],[23.823648677399305,8.855929249249442],[23.80408802745164,8.815338652810107],[23.78870011078088,8.773013573285086],[23.777636539250846,8.729375282103652],[23.775368659743755,8.714148489490636],[23.758087096565294,8.683543540275389],[23.73967444112655,8.64136283549207],[23.725681581302677,8.597538492181553],[23.71625222494475,8.552525767207491],[23.71148260323667,8.506792074956495],[23.711460528542812,8.490208510088479],[23.703444745913107,8.451455948273296]]]}},{"type":"Feature","properties":{"kind":"analysis-edge"},"geometry":{"type":"LineString","coordinates":[[23.711460528542812,8.490208510088479],[23.71148260323667,8.506792074956495],[23.71625222494475,8.552525767207491],[23.725681581302677,8.597538492181553],[23.73967444112655,8.64136283549207],[23.758087096565294,8.683543540275389],[23.775368659743755,8.714148489490636],[23.777636539250846,8.729375282103652],[23.78870011078088,8.773013573285086],[23.80408802745164,8.815338652810107],[23.823648677399305,8.855929249249442],[23.847188769315963,8.894381185153929],[23.885810440117886,8.950896516295392],[23.91398141015926,8.987867283009185],[23.945832116177545,9.021770596239126],[23.981026834333278,9.052247702521479],[24.019194165676996,9.078975942615234],[24.08341786651225,9.118916212025825],[24.090239273079426,9.127411875008766],[24.09856054403386,9.18813038306171],[24.09590395858906,9.241530446658667],[24.09895602303523,9.28693237492724],[24.106602181987338,9.331795468724454],[24.118766434202264,9.37566365635712],[24.13406737922266,9.421630207288235],[24.150115858023423,9.462912602627972],[24.170169566458473,9.50243485707582],[24.199805475432484,9.547146548371044],[24.20526343961093,9.562049998624984],[24.225773237341755,9.603962039516666],[24.24955448136612,9.641975454226914],[24.25528844634176,9.655241383818298],[24.2846088107171,9.70514553253218],[24.28357934291709,9.727161266070254],[24.285862307698782,9.771163780008603],[24.292465707889388,9.81473194462939],[24.303328242469316,9.857450562174028],[24.318347959262795,9.898912374430015],[24.337383164520297,9.938721946162767],[24.37496899312846,9.998310038767606],[24.401634195388606,10.033904339374573],[24.43170622150802,10.066732176974526],[24.464895392349565,10.096476041963038],[24.50088161633332,10.12284811893083],[24.51624451898199,10.131940013009297],[24.55242777061496,10.165156750707506],[24.575481241194765,10.18214279092842],[24.57721130095277,10.21034156318715],[24.58403707546938,10.253108711764286],[24.630590235245137,10.416458377441518],[24.64752696683035,10.458560100473829],[24.668654376601438,10.49876421218951],[24.69376075044653,10.53666476884793],[24.7175174694852,10.565679479724142],[24.740044274045488,10.596866294041632],[24.76996293377597,10.630601474556864],[24.80313309047634,10.661226915666509],[24.83922694932114,10.68843894201734],[24.877887431835187,10.71196759619561],[24.943093338427143,10.742382014115758],[24.98594821524199,10.760331423083178],[25.0364072643189,10.77504639689558],[25.048962835452354,10.780561214794385],[25.091977555988844,10.79459590566928],[25.13619641859098,10.804346334789757],[25.181183086199557,10.809716011301376],[25.204068836236637,10.810189280122668],[25.24316303126898,10.820582359912821],[25.318199263316952,10.8361172372896],[25.36764030768834,10.840956157190728],[25.388653845314575,10.844500313043445],[25.434344058809703,10.847607634214162],[25.451736757711668,10.847064474540815],[25.471155937528575,10.85151755421152],[25.504909417244924,10.855804759733383],[25.5298248012201,10.864630413183942],[25.57408665561234,10.875528621466284],[25.619235478873446,10.882006902790128],[25.664819703617013,10.884000212721954],[25.680558074644377,10.883133224193706],[25.712087202840518,10.887923799658955],[25.7574803166612,10.890302629627472],[25.802893419282945,10.888210036794172],[25.84787556834964,10.881666535250233],[25.868564421212703,10.876540349775546],[25.91001609443289,10.870026979513359],[26.017179100259465,10.846845310363147],[26.060517436193287,10.832684077603142],[26.102211098871088,10.814319661124163],[26.141843138652522,10.791935541833455],[26.179017431164333,10.76575539901644],[26.230615762583227,10.722256937764195],[26.26291573384759,10.692012409981908],[26.29208560793259,10.65880684590388],[26.31784916135229,10.622955522438039],[26.339962765513967,10.584798777610962],[26.358217677127293,10.544698757142154],[26.37244198614651,10.503035955874621],[26.382502204127306,10.460205587900687],[26.387922342242334,10.419485450852715],[26.400538074206416,10.405931741849031],[26.428276496219176,10.369292543026916],[26.45212263494393,10.330064708904933],[26.484856772665477,10.269443688126097],[26.537079747540297,10.218947526524826],[26.565087389672062,10.189308956589809],[26.590293091682554,10.15730108158779],[26.612493707852245,10.12318270621973],[26.631510561635693,10.087229649493459],[26.6471908720027,10.04973250047974],[26.68014876267807,9.959636949349363],[26.69460801140805,9.956428495844982],[26.804956087375068,10.005783626994603],[26.85051803192076,10.023300961581361],[26.89771731176042,10.035878078173223],[27.0428442951569,10.066349614301336],[27.097232508572052,10.074395557955722],[27.152207704354506,10.0758878261809],[27.755736326037866,10.05565627621546],[27.886095184734295,10.061633241561742],[27.930501664341133,10.061514125881812],[27.974686935771057,10.057110044130056],[28.018230403594597,10.04846279095691],[28.06071763271026,10.035654543372162],[28.101744338902318,10.018807073935411],[28.140920277495432,9.998080582911777],[28.177872990999205,9.97367216104862],[28.212251378328695,9.945813898337555],[28.243729050313917,9.914770657649843],[28.272007438728835,9.88083753543316],[28.29681862893133,9.844337034696915],[28.320996540899174,9.79926540620548],[28.478591533827654,9.801048351683775],[28.49941311127039,9.822872770406681],[28.76108624417522,10.074745512149317],[28.7939511903934,10.103438552785683],[28.829447809720104,10.128870671093866],[28.867248236578806,10.150806561335699],[28.907003065600094,10.169043213596492],[28.948344600665358,10.18341181184306],[28.9908902830387,10.193779313964098],[29.03424626557691,10.200049698284174],[29.099839826356625,10.202178078181772],[29.103213044394593,10.215300286380014],[29.11865276676514,10.25739378695401],[29.138225927357915,10.297765136574807],[29.161741506758464,10.33601738223491],[29.18896949661329,10.371774280647111],[29.21964312079576,10.40468401884558],[29.253461430230296,10.4344226980502],[29.290092247100034,10.460697545382331],[29.329175430152993,10.483249820585199],[29.729503164589286,10.688282902225879],[29.77518205160359,10.708579169490529],[29.822836606342115,10.723801616868363],[29.87189241155286,10.733766733574042],[29.92175794317455,10.73835437200629],[29.97958020294528,10.740515184645798],[30.024713433806458,10.739988709772584],[30.0695729267344,10.735054474947328],[30.113719221932694,10.725760803891932],[30.156719934314037,10.712198709124664],[30.198154038344704,10.694500990239868],[30.237616034365374,10.672840918778828],[30.772756838986982,10.343154552573129],[30.820797797983854,10.309018918921364],[30.953776368229263,10.200869506203459],[31.088657435573626,10.201373343015563],[31.415799681584225,10.567923820159876],[31.60063506930929,10.881471279140714],[31.62747218737572,10.921818972796553],[31.658515636093234,10.959105507859087],[31.693411536853237,10.992904402879514],[31.731761556060537,11.022828977578227],[31.773127454160964,11.048536812691827],[31.873877965223272,11.10392940368273],[31.93934494460796,11.16588108226584],[31.93593055252267,11.210688005031285],[31.930224103027186,11.492561053157914],[31.798779659161276,11.609876726863906],[31.766388637515412,11.641813415373873],[31.737389082786173,11.676780763531042],[31.71207140242323,11.714429972845107],[31.69068956547457,11.754385365255306],[31.673458532708374,11.796248110238116],[31.66055206314872,11.839600186769426],[31.65210092044255,11.884008541560501],[31.648191498981774,11.929029402886949],[31.648864885954882,11.974212707595902],[31.654116371513755,12.019106597530989],[31.663895415032364,12.063261940676458],[31.67810607102987,12.106236831808864],[31.696607873760577,12.147601027372602],[31.719217174775622,12.186940269675958],[31.74570892297953,12.223860456347028],[31.775818871891904,12.257991612297578],[31.809246194039893,12.288991623217807],[31.845656477718258,12.316549691859736],[31.884685076831442,12.340389481048367],[31.925940780254642,12.360271910468725],[31.969009763193633,12.375997577785048],[32.013459779464704,12.387408778521769],[32.05884455052821,12.394391103330872],[32.104708304558116,12.39687459573865],[32.30223664216335,12.397773855064724],[32.31488396512712,12.428076311841698],[32.335952320518686,12.467163272914773],[32.36080921666551,12.504039531179949],[32.389217249689736,12.53835109021321],[32.42090462766376,12.569768492000994],[32.455567760170126,12.597990004995184],[32.49287416784043,12.62274454664509],[32.53246568411396,12.643794311084719],[32.5739619180059,12.660937075507066],[32.61696394353214,12.674008161922092],[32.66105817866586,12.682882034439812],[32.705820414354065,12.687473515905591],[32.75081995225057,12.68773861159817],[33.318877051972116,12.663251766383372],[33.363496230043495,12.659140912629487],[33.40748701660205,12.650775280689299],[33.45042960038178,12.63823486152898],[33.4919143483666,12.621639447677497],[33.53154575867639,12.601147470387755],[33.568946267940674,12.576954465509475],[33.60375987503576,12.549291183838648],[33.635655545375336,12.518421365205162],[33.66433036265281,12.484639198814332],[33.689512397980565,12.448266495337482],[33.71096326969685,12.409649598923687],[33.728480370655845,12.369156069658052],[33.74189874351888,12.32717116900611],[33.75109258836835,12.284094182448625],[33.75597639081671,12.240334614821464],[33.756505662632,12.196308294830278],[33.75267729070705,12.152433425812301],[33.744529493925015,12.109126620074171],[33.732141391089144,12.06679895405287],[33.71563218656562,12.025852081137455],[33.69515998361606,11.986674438263334],[33.68668671864114,11.973729278447239],[33.625899669335475,11.659268185484873],[33.6057469165784,11.587172450067458],[33.691292223167466,11.059930040332544],[33.7316090782129,11.037033638783894],[33.76705373586644,11.011857551125194],[33.799895880434235,10.983451285797745],[33.829835898534206,10.95207473887592],[33.99492779605075,10.761441371103171],[34.0870383657226,10.684688733257246],[34.12280099854545,10.651461165329524],[34.154739492025385,10.614624893933229],[34.18248554730616,10.574606454374438],[34.20742589944277,10.53411628458488],[34.24635622975026,10.507927788362355],[34.2813763897515,10.478716019320464],[34.31325016074848,10.446173662664412],[34.34165671141364,10.410629453800771],[34.36631050950185,10.37244229909751],[34.38696416762273,10.331997628944867],[34.403410891143594,10.289703488314437],[34.41548650564583,10.245986405253797],[34.41772575419985,10.23278954748136],[34.43614792329538,10.179818795782824],[34.4458622636537,10.135008111573201],[34.45093724714814,10.089449036744877],[34.45466183632246,10.02711494347319],[34.454829166680604,9.976691155075946],[34.449323270064475,9.92655787236536],[34.43117161794097,9.817949767306075],[34.46460983431188,9.78116831913018],[34.49110294506445,9.744728380724858],[34.51380561826088,9.705855979059042],[34.532494220952294,9.66493645605982],[34.546985093709715,9.622375281457177],[34.55713631291896,9.578594023487936],[34.562849033138384,9.534026166628884],[34.60111094385704,9.040883267662199],[34.602456528610034,9.004490629896184],[34.6012069560364,8.644247583683418],[34.5987309917044,8.598606228345236],[34.591630576409464,8.553445745911082],[34.57997989229383,8.509228227207437],[34.56389953674929,8.466405986075777],[34.54355523811851,8.425416952921076],[34.51915611965014,8.386680218940164],[34.490952530803,8.35059177537646],[34.459233468915485,8.317520490105576],[34.431942685821625,8.294290672570627],[34.4066329042199,8.248282169853812],[34.38173127865596,8.213067354570102],[34.35357911136926,8.180369760873225],[34.32243224149023,8.150485932733107],[34.288573479007674,8.123686877348483],[34.25231004647333,8.10021562346615],[34.21397080684518,8.080285031649638],[34.17390330185322,8.064075875784615],[34.13247062678313,8.051735212757697],[34.10102416347214,8.045538566341625],[34.09177347436829,8.040355138100695],[34.05513011345682,8.008800464862135],[34.03620001974392,7.9957213410930414],[34.063392999966084,7.9778722970828],[34.12472677714267,7.926538036403058],[34.169192114135484,7.905200873390646],[34.207289085284685,7.881564502844066],[34.242850033359524,7.854289733411567],[34.27552645758013,7.823644535110229],[34.30499840938927,7.789929870264402],[34.33097761790509,7.75347671547829],[34.35321029342053,7.71464279211254],[34.361024507762835,7.697177809318941],[34.386904610253374,7.660490367659579],[34.40786889606036,7.623455588513505],[34.41756404095382,7.601787119906933],[34.43584136739457,7.571406263264627],[34.45442052481019,7.532557017623232],[34.47090219973468,7.485612153817775],[34.48651596432554,7.473445079413155],[34.519362761015365,7.442075399832671],[34.54888647294476,7.407579171781513],[34.574790021421464,7.370304800723933],[34.5832048405003,7.355145468738147],[34.610858830940984,7.347696835594119],[34.65123129643346,7.332582708949511],[34.6899776573834,7.3137049435090615],[34.72674606888919,7.291235343191575],[34.76120284547499,7.265378302164628],[34.83437774166746,7.197135896145531],[34.86394742497037,7.163269155816719],[34.90249519839458,7.109279070767363],[34.94085505705187,7.078786636304998],[34.98882389316363,7.044739291211955],[35.03782876686614,7.028001837640699],[35.104690282328484,6.997817019609896],[35.143462778866244,6.9743997106512605],[35.17969239141056,6.947229213173185],[35.2520145195057,6.884407670120263],[35.28123942813899,6.853688183121761],[35.30745097212553,6.820371803947875],[35.33146856731576,6.782730543747622],[35.368412010166914,6.738237438305286],[35.39613274357053,6.701131848067679],[35.419902889332434,6.661390503183848],[35.43947373628601,6.619431408310687],[35.45464088519591,6.57569571747514],[35.4652463424088,6.530643085508552],[35.47118012048076,6.484746832411797],[35.472381331699104,6.438488971646882],[35.46883876579551,6.3923551544334725],[35.46059094848304,6.346829582681863],[35.4469474614976,6.291142671325568],[35.4378845989223,6.241690485789066],[35.43050472733007,6.217122161025685],[35.43614147478688,6.199598410741077],[35.4456574612987,6.154987043891654],[35.457897520173596,6.078970850863625],[35.46283431887062,6.03416646965532],[35.46314880710748,6.002378244693743],[35.52218737887023,5.9032070572539],[35.561777788009636,5.87543143730043],[35.59998879251506,5.872342588220559],[35.646403457353294,5.863639167323641],[35.70482717678487,5.849480207164384],[35.72975616195405,5.849786717234298],[35.775386476822064,5.845701023589763],[35.820372286098205,5.837007960021651],[35.86424925083435,5.823797662724172],[35.906564643274805,5.806206884765573],[35.96336991130598,5.7772642640270035],[35.99193208410744,5.760214910918148],[36.05142136535885,5.732937287913208],[36.089398148077805,5.713294748144722],[36.1253494434275,5.690148694883798],[36.15895278836571,5.663707309551769],[36.18990697804278,5.634208297574485],[36.21793476241453,5.60191673361238],[36.242785320327926,5.567122663199742],[36.26423648943574,5.53013848313534],[36.2820967327748,5.491296124837054],[36.296206825451186,5.450944066497152],[36.306441247579684,5.4094442012447255],[36.31270927239522,5.367168589632918],[36.31495574125874,5.324496125619551],[36.31316152009566,5.281809145801111],[36.30994228152878,5.248407336893871],[36.315853284506034,5.199362345095421],[36.31637422745838,5.155086550805792],[36.31256064336265,5.110980461413969],[36.30445022818504,5.0674682830271705],[36.29212191508893,5.024968409233658],[36.272239195500504,4.977227891176944],[36.27269502379971,4.94581658814136],[36.29708123812856,4.9164271984562795],[36.32377997303656,4.880820612838976],[36.34685203806191,4.84276107568987],[36.36607402985089,4.802618858649451],[36.381260091999835,4.760784344607335],[36.39226368161091,4.717664224423351],[36.39897895062659,4.673677540900555],[36.40134173037493,4.629251618533362],[36.399330111619506,4.584817918413421],[36.39296461626059,4.54080785816679],[36.38230796064623,4.497648636924025],[36.367464414199766,4.455759105097867],[36.3485787607307,4.41554571817019],[36.32583487334967,4.377398612780921],[36.2994539173375,4.34168784217724],[36.26969219860573,4.3087598065334705],[36.23683867851422,4.278933911802738],[36.20121217876321,4.252499488624238],[36.163158302832926,4.229713000399917],[36.12304610298472,4.2107955669874],[36.081264524142746,4.19593082755115],[36.03821865802344,4.185263162991502],[35.994325842650895,4.178896295054341],[35.95001164386935,4.176892275739031],[34.566341469145826,4.180770514029791],[33.83346165255648,3.4313328794495797],[33.801252982065414,3.4013924845916073],[33.766289837833426,3.374756168252244],[33.728905410051176,3.3516776491111235],[33.689455862317025,3.332376772774945],[33.64831695524119,3.3170374272893266],[33.60588048649958,3.3058057983390916],[33.5625505803726,3.29878898050765],[33.518739861201695,3.2960539576993653],[33.47486554629362,3.2976269624347627],[33.14270686992059,3.325794307669646],[33.10153689064651,3.331205268550114],[33.06103248148651,3.34040956870268],[33.02153865315789,3.3533290045466626],[32.98746817254724,3.368088084596515],[32.85294953448325,3.3273895034711787],[32.79993951511991,3.314809185436803],[32.74579810681713,3.3087687823057794],[32.60452678094137,3.3016577189152843],[32.580577116553926,3.2594310802509083],[32.554036867543054,3.2224864853073285],[32.523931041584824,3.1884226110026344],[32.4905660557955,3.157585636936692],[32.45428132819209,3.130288923408845],[32.415445834263984,3.10680984343263],[32.37445436864208,3.0873869787138033],[32.33172354910289,3.0722177074571504],[32.28768760263548,3.06145620801117],[32.24279397542427,3.055211898269771],[32.19749881033672,3.053548326462268],[32.152262336829075,3.0564825245166736],[32.107544219077965,3.0639848306178235],[31.989468969133295,3.0899937510488207],[31.946445420919396,3.101740460902436],[31.904784327484876,3.117714595526614],[31.864895117598255,3.1377594060810936],[31.846231769946552,3.1495929380814243],[31.794139681067733,3.165694868280426],[31.7530589369489,3.183930567739459],[31.713985634067004,3.206195171505702],[31.68003459523399,3.230329886592404],[31.642490134255567,3.21835557498607],[31.59949495048446,3.209173883372462],[31.555811317425647,3.204260213005618],[31.511856509491544,3.2036615628787115],[31.468050394821585,3.207383735718251],[31.42481144582075,3.2153912796130624],[31.382552762088526,3.2276078210152455],[31.34167814293299,3.2439167861405434],[31.30257824623609,3.2641625041750175],[31.264534262166205,3.286288575500211],[31.255002584560618,3.2661703145355783],[31.23162371618382,3.227388906745423],[31.204501498944182,3.191160924880949],[31.17390918613047,3.157850578096684],[31.14015479624831,3.1277926933343076],[31.103578014666084,3.101289366453885],[31.064546782724832,3.0786069419033195],[31.023453608133682,3.0599733505759366],[30.98071163311432,3.0455758319875708],[30.936750499066513,3.035559063139917],[30.89201204847843,3.0300237124581337],[30.846945906376035,3.029025433034969],[30.802004984778083,3.0325743051181497],[30.757640954380424,3.040634733383793],[30.71429972802653,3.053125800087425],[30.672417000424467,3.0699220707191537],[30.63241388804536,3.090854844353635],[30.594692712190444,3.11571383652184],[30.559632966854487,3.1442492781819436],[30.54017357639488,3.163636169583553],[30.464468258987043,3.1796953035569584],[30.422873182907832,3.190845957158665],[30.382526710120537,3.2059472946186274],[30.343798518204068,3.2248610769981587],[30.307043538331225,3.2474141416787057],[30.27259871497239,3.273399977617181],[30.240779926861443,3.3025806048673423],[30.21187909698826,3.3346887416005506],[30.186161517753405,3.3694302392735884],[30.163863415571004,3.406486764170345],[30.14518977715208,3.445518701308163],[30.127585027437018,3.496609693400549],[30.07631868917073,3.509098682829351],[30.033660381507232,3.5245431277806825],[29.99276315991784,3.5442273650012677],[29.95404239089719,3.5679516493601486],[29.91789145681547,3.5954752094494307],[29.884677773260997,3.626518676388986],[29.854739064399595,3.6607669032767096],[29.82837993363701,3.6978721473808447],[29.805868764069544,3.7374575835480717],[29.791671980308188,3.7695453257253084],[29.750634358521793,3.803337452159205],[29.722158687731778,3.832925222284888],[29.682957516989212,3.862762118378344],[29.650364283378373,3.8936868741169772],[29.599468164156796,3.9553170839985015],[29.55787104874256,3.9851446102666137],[29.548711906779115,3.9934072331872827],[29.53393806211084,3.985591198910411],[29.485033706074,3.965903564164072],[29.443242572719143,3.9433244888601187],[29.4164957213185,3.930761387643335],[29.37497953340064,3.9137361632056225],[29.331986373760483,3.9009456420501682],[29.28794255486626,3.892516535557548],[29.243284736751633,3.888532325966757],[29.198455621657722,3.8890324463883896],[29.15389959059326,3.8940118945270137],[29.110058324030124,3.903421283765229],[29.067366449085025,3.9171673310431236],[29.026247255275692,3.9351137767561952],[28.987108520284753,3.957082727732317],[28.95033848612467,3.982856410273144],[28.91002074565273,4.014225281741781],[28.88116749790319,4.026967195931393],[28.8734478257237,4.027934463416753],[28.827375115332725,4.008203483135952],[28.81036064338746,3.996686104538191],[28.792384753867886,3.9870006809144662],[28.768859073881234,3.9638725826758714],[28.733776044053812,3.932792991362121],[28.69567797450158,3.9055368720217767],[28.654976113658666,3.882397988967292],[28.61210963184673,3.863625673797863],[28.56754089857449,3.849422157019246],[28.52175051610023,3.8399404056587527],[28.475232161801337,3.8352824894308646],[28.401736103592654,3.831776633437335],[28.35846384834393,3.831802186209308],[28.315396707268953,3.8360039424888943],[28.27293247962913,3.8443430205311455],[28.23146341128078,3.8567423404726044],[28.19137259252084,3.8730873343106573],[28.15303043904001,3.8932269995939457],[28.13322622893995,3.9062057326398714],[28.11171338891278,3.9097543715031358],[28.070130286782316,3.9207964930482944],[28.029788093043962,3.9357775374953192],[27.99105505511147,3.9545607476399507],[27.954284800745494,3.9769746743809105],[27.9382462795548,3.9889978357641445],[27.917460819505187,3.99582644320694],[27.876201197180393,4.014158567496079],[27.836977406828954,4.036549877906929],[27.80018347313016,4.062775529359133],[27.766189134661463,4.0925721723488655],[27.7334899540815,4.1280668833908],[27.70927200771492,4.13544228235806],[27.667697845626535,4.152828733505585],[27.628063280238894,4.174301540828969],[27.59076482676353,4.199645938809668],[27.550028191185127,4.2349041975824955],[27.503914272313594,4.26864132149704],[27.470828665792602,4.299663267973802],[27.441013665018083,4.333867485878002],[27.41477104889652,4.370908358336223],[27.392366642483903,4.410411557593982],[27.37402762196262,4.45197780893461],[27.360026894854908,4.493015210058274],[27.324955390371876,4.510734950331613],[27.285353964644887,4.536265942392142],[27.248624859856797,4.565807570553824],[27.215169244013133,4.5990374381803765],[27.154875707023375,4.66552324977677],[27.131291974171727,4.69423795351284],[27.093494205847477,4.734714406346417],[27.067794354946805,4.7696547098356605],[27.04555539810093,4.80691092039641],[27.026983117587783,4.846139352727002],[27.012249588895532,4.886978066853861],[27.008531228372505,4.901520979491333],[26.975147839234875,4.940389522103994],[26.94965488090323,4.977844404410242],[26.871580780730376,5.105866604687828],[26.84933837244561,5.1469608651580705],[26.831449516102985,5.190142429927474],[26.818106539248802,5.234949407919463],[26.80945328201642,5.280902414570246],[26.79466542162892,5.39014731738015],[26.79103815294148,5.437309253934985],[26.77812666867651,5.446317985418262],[26.7702261217765,5.4494215436704625],[26.72377790608177,5.458610405366668],[26.680411038870226,5.472038668244545],[26.638612085885512,5.489763585843312],[26.598803570916463,5.511605891797472],[26.5613880050696,5.537344715868833],[26.523555384777172,5.570029207419384],[26.469151141379225,5.591693204589219],[26.434834044450987,5.600214376135476],[26.391261345667242,5.615931642689358],[26.3634806627947,5.6293164095755985],[26.332301023057493,5.635881921047224],[26.28958386002898,5.649423353490299],[26.248419775043594,5.66713860639267],[26.209213936619353,5.688853199435299],[26.17235234128328,5.714353304812874],[26.138198037407232,5.7433878418699305],[26.107087569146078,5.775670935458486],[26.079327674489377,5.810884714391364],[26.05519226915482,5.848682423148764],[26.034919745499312,5.888691817022256],[26.01871061282217,5.930518808173542],[26.006725502402237,5.973751327665468],[25.999083557367616,6.017963366408872],[25.99677828475884,6.049985002331454],[25.957878878748943,6.092182796441736],[25.930698507104484,6.1300908393548275],[25.907569624481045,6.170602363008819],[25.888739482081032,6.213285836591221],[25.863191909975,6.28724877380991],[25.8534923358379,6.333288755173719],[25.848634939993957,6.382292031890331],[25.842829413371398,6.409416717672311],[25.837946013383352,6.451885994832029],[25.82111506907118,6.463938873031549],[25.787765006991258,6.493167033326593],[25.757440164612028,6.5255214150692264],[25.730432609537445,6.5606908600862335],[25.70700268320412,6.598337109693574],[25.676854167795334,6.654754851865271],[25.653810198073916,6.6886251299958115],[25.628025736695744,6.706981940574719],[25.57969234445917,6.7356781664091905],[25.557091855684586,6.753128113390456],[25.440912672846896,6.796629585183946],[25.400141604369832,6.81556722890494],[25.369421310691656,6.833739058972984],[25.33177898360207,6.844803257447974],[25.290703910220877,6.861384970009138],[25.251449464369802,6.881896421421307],[25.214391437340463,6.906141125001835],[25.184400050143644,6.930256682254526],[25.123139344694593,6.964886642991445],[25.08483975642987,6.990237888006228],[25.049311803737602,7.019333967540568],[25.016921587893076,7.051875206632966],[24.98254588088444,7.095858986115352],[24.934214714672816,7.125118933006126],[24.900399918084187,7.151468497399983],[24.86923531192272,7.1808923488615175],[24.841000740630406,7.21312652169833],[24.815949927912982,7.247881831181444],[24.79430820193259,7.284846451737084],[24.776270467872216,7.32368869748968],[24.761999445987076,7.36405998095474],[24.751621935297912,7.405612883215473],[24.73520467867075,7.448640263981848],[24.72385132137112,7.490884205516789],[24.71664898206566,7.534025467831141],[24.71366637616186,7.577659676440286],[24.714488916052662,7.6060487834713975],[24.696227208708997,7.617890127912441],[24.66188531556621,7.645215614420336],[24.63035750236852,7.6757244867202665],[24.609572871506476,7.700158606365714],[24.57706349089964,7.7302070267587055],[24.55959434681573,7.749847711793964],[24.51456128264275,7.752581865744337],[24.445452740652282,7.764994931656713],[24.398035835361863,7.777532678942298],[24.3517240361366,7.795366531360445],[24.329577799650156,7.795568005711095],[24.286354149150586,7.800102409284394],[24.24376424053843,7.808732854247294],[24.202198273640583,7.821379964146935],[24.177025981336875,7.83175241921373],[24.08833553610435,7.860057769266643],[24.04831844601605,7.875396319023942],[24.009932797795805,7.8944251103345815],[23.973520968902147,7.916974213715017],[23.885296745348466,7.982817666832146],[23.851144379655057,8.014932073663006],[23.820508506794027,8.050386353062075],[23.793717830028626,8.088800740596154],[23.771060126188708,8.129763738633555],[23.743663242311356,8.185987564342188],[23.72583507938061,8.22779798165578],[23.71231820486169,8.271176721215218],[23.703250581572323,8.315685123402375],[23.69872533231893,8.360872993080832],[23.698789746998653,8.406283132247419],[23.703444745913107,8.451455948273296],[23.711460528542812,8.490208510088479]]}}]}
