{"type":"FeatureCollection","features":[{"type":"Feature","properties":{"name":"Pibor"},"geometry":{"type":"LineString","coordinates":[[33.229,6.678],[33.184,6.705],[33.165,6.726],[33.018,6.98],[33.014,6.996],[33.018,7.006],[33.022,7.014],[33.024,7.027],[33.016,7.071],[33.018,7.088],[33.03,7.116],[33.044,7.136],[33.046,7.146],[33.038,7.157],[33.033,7.166],[33.035,7.176],[33.039,7.188],[33.041,7.199],[33.027,7.243],[32.975,7.315],[32.962,7.359],[32.964,7.37],[32.973,7.391],[32.975,7.402],[32.974,7.41],[32.965,7.425],[32.963,7.433],[32.963,7.441],[32.969,7.454],[32.97,7.46],[32.967,7.47],[32.963,7.479],[32.961,7.488],[32.962,7.499],[32.969,7.508],[32.98,7.515],[32.99,7.523],[32.994,7.535],[32.99,7.547],[32.973,7.562],[32.967,7.572],[32.967,7.584],[32.969,7.593],[33.0,7.673],[33.004,7.693],[32.999,7.715],[32.983,7.757],[32.981,7.781],[32.997,7.887]]}},{"type":"Feature","properties":{"name":"Mountain Nile"},"geometry":{"type":"LineString","coordinates":[[32.016,3.614],[31.94,3.696],[31.923,3.727],[31.865,3.799],[31.796,3.856],[31.749,3.909],[31.683,3.969],[31.673,3.981],[31.667,3.991],[31.61,4.055],[31.591,4.08],[31.576,4.111],[31.546,4.208],[31.539,4.217],[31.538,4.221],[31.522,4.241],[31.522,4.286],[31.51,4.343],[31.508,4.365],[31.511,4.379],[31.526,4.421],[31.533,4.499],[31.529,4.519],[31.507,4.56],[31.503,4.581],[31.533,4.61],[31.551,4.646],[31.563,4.663],[31.573,4.669],[31.584,4.675],[31.593,4.681],[31.594,4.69],[31.591,4.699],[31.591,4.766],[31.597,4.807],[31.604,4.826],[31.632,4.875],[31.637,4.892],[31.644,4.927],[31.721,5.106],[31.733,5.177],[31.739,5.192],[31.762,5.222],[31.764,5.236],[31.762,5.348],[31.76,5.362],[31.751,5.394],[31.749,5.41],[31.756,5.441],[31.789,5.5],[31.796,5.533],[31.794,5.613],[31.767,5.759],[31.754,5.79],[31.714,5.839],[31.681,5.903],[31.673,5.93],[31.666,5.942],[31.659,5.942],[31.652,5.938],[31.646,5.937],[31.637,5.946],[31.628,5.958],[31.621,5.971],[31.618,5.982],[31.615,6.002],[31.585,6.08],[31.575,6.096],[31.563,6.11],[31.553,6.116],[31.541,6.126],[31.533,6.151],[31.522,6.198],[31.498,6.248],[31.494,6.288],[31.49,6.306],[31.483,6.322],[31.475,6.335],[31.411,6.412],[31.399,6.438],[31.396,6.48],[31.39,6.499],[31.375,6.507],[31.357,6.51],[31.345,6.519],[31.337,6.534],[31.331,6.554],[31.324,6.601],[31.318,6.622],[31.307,6.63],[31.3,6.634],[31.298,6.642],[31.297,6.652],[31.293,6.661],[31.262,6.691],[31.254,6.709],[31.249,6.726],[31.242,6.74],[31.224,6.746],[31.212,6.751],[31.202,6.765],[31.187,6.794],[31.164,6.817],[31.148,6.83]]}},{"type":"Feature","properties":{"name":"White Nile"},"geometry":{"type":"LineString","coordinates":[[31.148,6.83],[31.128,6.837],[31.122,6.844],[31.107,6.859],[31.1,6.864],[31.083,6.872],[31.077,6.876],[31.073,6.885],[31.07,6.907],[31.063,6.918],[31.053,6.924],[31.028,6.929],[31.018,6.935],[31.004,6.945],[30.971,6.96],[30.903,7.016],[30.895,7.02],[30.87,7.026],[30.861,7.027],[30.852,7.029],[30.846,7.034],[30.819,7.073],[30.813,7.087],[30.81,7.106],[30.803,7.118],[30.755,7.143],[30.734,7.171],[30.722,7.18],[30.717,7.186],[30.712,7.217],[30.705,7.23],[30.696,7.241],[30.687,7.261],[30.68,7.287],[30.663,7.306],[30.657,7.322],[30.652,7.362],[30.642,7.383],[30.611,7.416],[30.604,7.435],[30.601,7.448],[30.594,7.45],[30.584,7.449],[30.577,7.453],[30.576,7.457],[30.578,7.469],[30.577,7.472],[30.565,7.482],[30.562,7.486],[30.558,7.489],[30.547,7.499],[30.54,7.509],[30.546,7.513],[30.558,7.514],[30.565,7.518],[30.569,7.525],[30.57,7.538],[30.567,7.556],[30.558,7.575],[30.546,7.59],[30.523,7.6],[30.522,7.61],[30.523,7.621],[30.522,7.63],[30.516,7.636],[30.5,7.649],[30.494,7.657],[30.496,7.666],[30.504,7.672],[30.509,7.678],[30.501,7.697],[30.509,7.742],[30.512,7.748],[30.517,7.752],[30.522,7.76],[30.528,7.767],[30.534,7.774],[30.537,7.781],[30.528,7.788],[30.528,7.795],[30.536,7.796],[30.54,7.798],[30.544,7.799],[30.549,7.801],[30.53,7.807],[30.522,7.808],[30.522,7.815],[30.536,7.824],[30.529,7.831],[30.515,7.837],[30.508,7.846],[30.508,7.874],[30.506,7.881],[30.496,7.887],[30.486,7.923],[30.426,7.993],[30.437,8.002],[30.425,8.021],[30.405,8.043],[30.392,8.062],[30.391,8.076],[30.392,8.091],[30.391,8.105],[30.384,8.116],[30.372,8.117],[30.359,8.112],[30.351,8.112],[30.351,8.13],[30.325,8.118],[30.311,8.15],[30.308,8.192],[30.313,8.213],[30.329,8.218],[30.327,8.23],[30.32,8.241],[30.32,8.246],[30.338,8.253],[30.337,8.268],[30.317,8.301],[30.324,8.304],[30.344,8.315],[30.338,8.326],[30.333,8.354],[30.323,8.364],[30.33,8.391],[30.335,8.396],[30.342,8.4],[30.348,8.405],[30.354,8.432],[30.359,8.446],[30.36,8.46],[30.351,8.479],[30.347,8.48],[30.334,8.478],[30.33,8.479],[30.329,8.483],[30.331,8.496],[30.33,8.5],[30.301,8.52],[30.296,8.524],[30.293,8.535],[30.278,8.55],[30.275,8.559],[30.278,8.571],[30.284,8.582],[30.285,8.59],[30.275,8.596],[30.275,8.593],[30.275,8.586],[30.275,8.583],[30.269,8.583],[30.269,8.595],[30.272,8.608],[30.277,8.62],[30.282,8.631],[30.302,8.655],[30.31,8.67],[30.309,8.685],[30.303,8.693],[30.296,8.696],[30.289,8.696],[30.282,8.699],[30.243,8.736],[30.234,8.747],[30.227,8.76],[30.24,8.77],[30.25,8.781],[30.254,8.794],[30.248,8.809],[30.241,8.802],[30.235,8.818],[30.237,8.853],[30.235,8.87],[30.23,8.878],[30.218,8.89],[30.214,8.898],[30.212,8.904],[30.214,8.918],[30.214,8.925],[30.21,8.941],[30.198,8.961],[30.193,8.973],[30.191,8.99],[30.194,9.007],[30.199,9.02],[30.207,9.028],[30.213,9.031],[30.229,9.034],[30.235,9.035],[30.252,9.054],[30.254,9.055],[30.256,9.061],[30.259,9.077],[30.261,9.083],[30.267,9.087],[30.281,9.091],[30.289,9.096],[30.3,9.108],[30.304,9.118],[30.309,9.151],[30.319,9.17],[30.332,9.18],[30.347,9.187],[30.358,9.2],[30.351,9.207],[30.354,9.213],[30.36,9.219],[30.364,9.226],[30.364,9.292],[30.362,9.306],[30.356,9.312],[30.347,9.315],[30.337,9.323],[30.325,9.348],[30.336,9.358],[30.355,9.365],[30.364,9.381],[30.369,9.404],[30.381,9.417],[30.394,9.427],[30.405,9.439],[30.416,9.472],[30.425,9.483],[30.443,9.487],[30.457,9.492],[30.468,9.504],[30.478,9.517],[30.488,9.528],[30.505,9.536],[30.523,9.54],[30.646,9.535],[30.773,9.505],[30.816,9.5],[30.896,9.5],[30.911,9.503],[30.924,9.51],[30.938,9.515],[30.96,9.514],[31.004,9.499],[31.125,9.432]]}},{"type":"Feature","properties":{"name":"White Nile"},"geometry":{"type":"LineString","coordinates":[[31.125,9.432],[31.283,9.392],[31.328,9.386],[31.349,9.38],[31.358,9.367],[31.366,9.359],[31.384,9.352],[31.405,9.346],[31.42,9.343],[31.464,9.349],[31.51,9.364],[31.551,9.387],[31.584,9.412],[31.613,9.448],[31.626,9.471],[31.632,9.491],[31.635,9.496],[31.649,9.509],[31.652,9.518],[31.649,9.527],[31.636,9.544],[31.632,9.555],[31.636,9.575],[31.66,9.599],[31.669,9.62],[31.677,9.623],[31.697,9.624],[31.705,9.629],[31.721,9.658],[31.74,9.67],[31.761,9.676],[31.807,9.679],[31.828,9.684],[31.921,9.751],[31.94,9.758],[31.965,9.761],[31.976,9.768],[31.986,9.783],[32.002,9.816],[32.025,9.846],[32.092,9.889],[32.125,9.919],[32.155,9.957],[32.168,9.979],[32.177,10.008],[32.184,10.015],[32.193,10.02],[32.204,10.022],[32.212,10.025],[32.218,10.035],[32.239,10.089],[32.247,10.104],[32.259,10.11],[32.266,10.12],[32.28,10.167],[32.283,10.185],[32.279,10.203],[32.26,10.232],[32.253,10.25],[32.244,10.268],[32.242,10.279],[32.243,10.29],[32.248,10.311],[32.248,10.323],[32.246,10.334],[32.235,10.364],[32.233,10.377],[32.235,10.409],[32.232,10.43],[32.221,10.441],[32.204,10.445],[32.133,10.445],[32.109,10.451],[32.098,10.47],[32.101,10.511],[32.105,10.53],[32.112,10.549],[32.136,10.585],[32.242,10.68],[32.301,10.749],[32.336,10.78],[32.372,10.796],[32.382,10.796],[32.404,10.795],[32.413,10.796],[32.425,10.805],[32.491,10.892],[32.505,10.919],[32.516,10.934],[32.523,10.94],[32.559,10.951],[32.573,10.967],[32.613,10.987],[32.625,10.995],[32.647,11.034],[32.653,11.071],[32.653,11.245],[32.651,11.254],[32.642,11.274],[32.639,11.286],[32.641,11.309],[32.646,11.331],[32.676,11.396],[32.681,11.416],[32.687,11.502],[32.707,11.575],[32.722,11.609],[32.742,11.638],[32.761,11.679],[32.769,11.728],[32.766,11.779],[32.755,11.824],[32.724,11.909],[32.722,11.958],[32.749,11.995],[32.747,12.028],[32.729,12.105],[32.73,12.202],[32.721,12.221],[32.723,12.255],[32.729,12.292],[32.741,12.327],[32.768,12.368],[32.773,12.385],[32.779,12.44],[32.797,12.496],[32.804,12.567],[32.755,12.77],[32.755,12.788],[32.759,12.802],[32.765,12.815],[32.77,12.831],[32.77,12.85],[32.766,12.87],[32.752,12.907],[32.756,12.931],[32.798,12.992],[32.811,13.016],[32.81,13.037],[32.803,13.049],[32.792,13.059],[32.783,13.071],[32.774,13.122],[32.766,13.136],[32.76,13.144],[32.754,13.16],[32.749,13.167],[32.741,13.172],[32.725,13.173],[32.718,13.177],[32.667,13.215]]}},{"type":"Feature","properties":{"name":"Bahr el  Zeraf"},"geometry":{"type":"LineString","coordinates":[[30.536,7.767],[30.56,7.77],[30.572,7.815],[30.577,7.904],[30.589,7.962],[30.59,7.983],[30.594,7.999],[30.61,8.025],[30.618,8.042],[30.625,8.08],[30.632,8.1],[30.642,8.109],[30.649,8.119],[30.645,8.263],[30.658,8.343],[30.661,8.348],[30.666,8.353],[30.67,8.36],[30.672,8.369],[30.67,8.38],[30.66,8.399],[30.658,8.408],[30.655,8.431],[30.642,8.473],[30.638,8.493],[30.652,8.537],[30.689,8.557],[30.732,8.567],[30.762,8.583],[30.768,8.599],[30.776,8.638],[30.791,8.663],[30.794,8.686],[30.799,8.696],[30.812,8.713],[30.824,8.734],[30.829,8.751],[30.835,8.799],[30.834,8.809],[30.851,8.816],[30.851,8.833],[30.837,8.863],[30.839,8.868],[30.844,8.876],[30.849,8.887],[30.851,8.898],[30.849,8.908],[30.845,8.919],[30.839,8.928],[30.834,8.932],[30.822,8.937],[30.808,8.949],[30.795,8.964],[30.79,8.98],[30.791,8.988],[30.808,9.042],[30.812,9.05],[30.82,9.059],[30.827,9.06],[30.838,9.059],[30.851,9.06],[30.861,9.066],[30.864,9.07],[30.87,9.082],[30.872,9.086],[30.874,9.09],[30.887,9.094],[30.892,9.096],[30.898,9.114],[30.896,9.168],[30.906,9.176],[30.926,9.187],[30.937,9.196],[30.944,9.206],[30.953,9.225],[30.96,9.233],[30.965,9.237],[31.003,9.256],[31.018,9.271],[31.025,9.276],[31.053,9.289],[31.056,9.292],[31.07,9.316],[31.083,9.327],[31.095,9.334],[31.104,9.343],[31.111,9.364],[31.114,9.406],[31.12,9.42],[31.139,9.426]]}},{"type":"Feature","properties":{"name":"Akobo"},"geometry":{"type":"LineString","coordinates":[[35.853,6.739],[35.844,6.723],[35.836,6.711],[35.827,6.702],[35.795,6.679],[35.782,6.673],[35.769,6.671],[35.754,6.671],[35.741,6.668],[35.722,6.653],[35.689,6.646],[35.662,6.629],[35.648,6.623],[35.642,6.633],[35.635,6.634],[35.628,6.633],[35.62,6.636],[35.615,6.643],[35.61,6.657],[35.607,6.664],[35.572,6.705],[35.579,6.731],[35.563,6.75],[35.539,6.756],[35.517,6.746],[35.507,6.75],[35.496,6.751],[35.483,6.749],[35.47,6.746],[35.428,6.722],[35.4,6.713],[35.394,6.701],[35.392,6.686],[35.388,6.671],[35.383,6.667],[35.364,6.642],[35.364,6.636],[35.351,6.629],[35.331,6.613],[35.313,6.595],[35.306,6.582],[35.313,6.57],[35.325,6.564],[35.331,6.558],[35.323,6.544],[35.313,6.539],[35.302,6.54],[35.29,6.537],[35.278,6.52],[35.269,6.521],[35.23,6.52],[35.204,6.51],[35.194,6.51],[35.182,6.52],[35.178,6.504],[35.166,6.501],[35.13,6.507],[35.121,6.501],[35.105,6.474],[35.092,6.466],[35.075,6.467],[35.065,6.477],[35.057,6.487],[35.048,6.492],[34.991,6.501],[34.976,6.507],[34.959,6.521],[34.948,6.536],[34.936,6.549],[34.898,6.559],[34.887,6.57],[34.872,6.595],[34.867,6.601],[34.866,6.604],[34.863,6.605],[34.838,6.614],[34.832,6.615],[34.822,6.616],[34.792,6.614],[34.774,6.616],[34.757,6.623],[34.726,6.642],[34.714,6.656],[34.709,6.674],[34.703,6.685],[34.635,6.73],[34.618,6.737],[34.596,6.739],[34.553,6.739],[34.536,6.743],[34.524,6.753],[34.517,6.794],[34.516,6.798],[34.512,6.808],[34.511,6.814],[34.513,6.815],[34.522,6.822],[34.524,6.825],[34.523,6.844],[34.519,6.862],[34.512,6.877],[34.503,6.89],[34.439,6.935],[34.297,6.969],[34.294,6.972],[34.287,6.975],[34.28,6.98],[34.275,6.998],[34.27,7.004],[34.23,7.034],[34.219,7.046],[34.213,7.052],[34.206,7.055],[34.198,7.065],[34.195,7.087],[34.195,7.129],[34.19,7.15],[34.181,7.167],[34.167,7.176],[34.151,7.168],[34.132,7.164],[34.113,7.178],[34.085,7.212],[34.04,7.247],[34.033,7.25],[34.031,7.255],[34.03,7.349],[34.023,7.383],[34.006,7.41],[33.882,7.536],[33.852,7.554],[33.842,7.556],[33.821,7.559],[33.811,7.561],[33.761,7.598],[33.729,7.642],[33.715,7.657],[33.706,7.662],[33.675,7.671],[33.647,7.689],[33.637,7.691],[33.572,7.685],[33.55,7.691],[33.54,7.699],[33.526,7.717],[33.516,7.726],[33.506,7.731],[33.488,7.736],[33.479,7.743],[33.462,7.75],[33.436,7.749],[33.393,7.74],[33.384,7.736],[33.359,7.719],[33.347,7.719],[33.291,7.733],[33.273,7.749],[33.257,7.768],[33.242,7.781],[33.233,7.783],[33.201,7.788],[33.172,7.8],[33.164,7.801],[33.132,7.794],[33.126,7.792],[33.12,7.783],[33.107,7.785],[33.085,7.795],[33.058,7.798],[33.051,7.801],[33.047,7.807],[33.044,7.817],[33.04,7.825],[33.023,7.835],[33.014,7.851],[32.989,7.917]]}},{"type":"Feature","properties":{"name":"Sobat"},"geometry":{"type":"MultiLineString","coordinates":[[[33.208,8.438],[33.195,8.442],[33.16,8.441],[33.147,8.446],[33.149,8.456],[33.157,8.475],[33.16,8.492],[33.15,8.5],[33.134,8.502],[33.122,8.507],[33.115,8.517],[33.113,8.531],[33.113,8.565],[33.105,8.573],[33.085,8.562],[33.081,8.573],[33.076,8.601],[33.068,8.614],[33.062,8.618],[33.054,8.622],[33.046,8.623],[33.04,8.62],[33.032,8.613],[33.029,8.614],[33.025,8.616],[32.992,8.617],[32.979,8.615],[32.965,8.606],[32.959,8.595],[32.954,8.582],[32.948,8.569],[32.935,8.562],[32.928,8.598],[32.92,8.611],[32.903,8.617],[32.869,8.617],[32.858,8.62],[32.839,8.634],[32.831,8.637],[32.825,8.636],[32.82,8.631],[32.817,8.626],[32.817,8.624],[32.812,8.625],[32.802,8.63],[32.786,8.632],[32.775,8.636],[32.766,8.634],[32.763,8.62],[32.758,8.615],[32.749,8.611],[32.739,8.609],[32.735,8.614],[32.733,8.624],[32.721,8.649],[32.715,8.658],[32.703,8.653],[32.691,8.651],[32.681,8.655],[32.673,8.665],[32.673,8.68],[32.68,8.692],[32.689,8.701],[32.694,8.709],[32.696,8.71],[32.701,8.721],[32.705,8.733],[32.704,8.737],[32.716,8.748],[32.72,8.756],[32.716,8.765],[32.708,8.781],[32.693,8.798],[32.672,8.811],[32.647,8.819],[32.622,8.822],[32.602,8.832],[32.596,8.856],[32.592,8.883],[32.578,8.904],[32.571,8.89],[32.561,8.877],[32.547,8.867],[32.527,8.863],[32.519,8.865],[32.511,8.87],[32.505,8.876],[32.502,8.881],[32.503,8.911],[32.502,8.919],[32.493,8.925],[32.485,8.924],[32.478,8.92],[32.468,8.919],[32.468,8.918],[32.459,8.918],[32.454,8.919],[32.449,8.925],[32.443,8.93],[32.438,8.932],[32.415,8.936],[32.402,8.95],[32.397,8.97],[32.4,8.994],[32.408,9.032],[32.406,9.053],[32.379,9.068],[32.369,9.099],[32.352,9.11],[32.282,9.109],[32.269,9.113],[32.265,9.125],[32.255,9.12],[32.239,9.1],[32.23,9.096],[32.221,9.099],[32.2,9.118],[32.194,9.126],[32.193,9.137],[32.2,9.151],[32.173,9.166],[32.166,9.172],[32.163,9.181],[32.16,9.192],[32.157,9.202],[32.149,9.206],[32.125,9.211],[32.128,9.223],[32.135,9.238],[32.125,9.254],[32.115,9.256],[32.107,9.253],[32.1,9.248],[32.091,9.247],[32.086,9.247],[32.074,9.246],[32.07,9.247],[32.069,9.251],[32.071,9.265],[32.061,9.273],[32.044,9.297],[32.033,9.302],[32.01,9.303],[31.989,9.308],[31.953,9.323],[31.934,9.328],[31.888,9.334],[31.874,9.344],[31.863,9.355],[31.851,9.364],[31.83,9.365],[31.826,9.35],[31.825,9.332],[31.814,9.323],[31.795,9.328],[31.786,9.328],[31.783,9.319],[31.782,9.307],[31.779,9.301],[31.772,9.298],[31.762,9.295],[31.757,9.295],[31.745,9.301],[31.738,9.302],[31.732,9.299],[31.726,9.285],[31.721,9.282],[31.707,9.288],[31.684,9.311],[31.669,9.316],[31.616,9.32],[31.591,9.328],[31.577,9.343],[31.592,9.35],[31.597,9.36],[31.591,9.371],[31.577,9.377],[31.564,9.374],[31.552,9.367],[31.543,9.365],[31.536,9.377]],[[32.989,7.917],[32.993,7.928],[33.006,7.943],[33.011,7.953],[33.016,7.959],[33.021,7.965],[33.025,7.986],[33.031,7.996],[33.043,8.014],[33.1,8.071],[33.106,8.081],[33.111,8.091],[33.113,8.099],[33.117,8.104],[33.147,8.109],[33.164,8.117],[33.177,8.127],[33.185,8.141],[33.187,8.161],[33.184,8.166],[33.171,8.176],[33.167,8.182],[33.168,8.196],[33.169,8.206],[33.173,8.215],[33.181,8.226],[33.19,8.233],[33.199,8.236],[33.206,8.241],[33.208,8.254],[33.194,8.259],[33.185,8.265],[33.178,8.276],[33.171,8.283],[33.164,8.293],[33.161,8.305],[33.163,8.312],[33.171,8.331],[33.174,8.343],[33.172,8.347],[33.163,8.353],[33.161,8.356],[33.161,8.362],[33.166,8.368],[33.167,8.373],[33.167,8.39],[33.169,8.398],[33.174,8.405],[33.187,8.411],[33.202,8.414],[33.21,8.421],[33.201,8.438]]]}},{"type":"Feature","properties":{"name":"Albert Nile"},"geometry":{"type":"LineString","coordinates":[[32.016,3.614],[32.023,3.587],[32.009,3.578],[31.958,3.563],[31.947,3.549],[31.942,3.528],[31.928,3.51],[31.908,3.499],[31.886,3.498],[31.874,3.501],[31.862,3.506],[31.85,3.514],[31.841,3.522],[31.823,3.52],[31.813,3.522],[31.814,3.529],[31.815,3.535],[31.804,3.533],[31.783,3.525],[31.758,3.503],[31.749,3.498],[31.726,3.493],[31.704,3.491],[31.693,3.486],[31.687,3.477],[31.682,3.468],[31.664,3.454],[31.657,3.432],[31.653,3.406],[31.646,3.388],[31.612,3.353],[31.597,3.335],[31.588,3.3],[31.582,3.293],[31.576,3.286],[31.57,3.279],[31.567,3.271],[31.563,3.244],[31.551,3.202],[31.512,3.119],[31.476,3.063],[31.43,3.015],[31.415,2.994],[31.402,2.956],[31.377,2.904],[31.368,2.863],[31.371,2.821],[31.393,2.786],[31.412,2.772],[31.427,2.764],[31.437,2.753],[31.443,2.717],[31.447,2.706],[31.449,2.694],[31.448,2.682],[31.442,2.676],[31.425,2.668],[31.42,2.662],[31.416,2.638],[31.424,2.617],[31.436,2.599],[31.451,2.583],[31.463,2.562],[31.478,2.519],[31.495,2.504],[31.504,2.505],[31.515,2.509],[31.525,2.509],[31.529,2.501],[31.527,2.49]]}}]}