{"type":"FeatureCollection","metadata":{"area":"yei","measure":"thresholded_4m_building_presence_coverage","presence_threshold":0.3,"presence_scale":10000,"years":[2016,2018,2019,2023],"patch_m":1200,"block_patches":10},"features":[{"type":"Feature","geometry":{"type":"MultiPolygon","coordinates":[[[[30.658296505699138,4.046116927870562],[30.66909832209699,4.046148154431902],[30.669067255835557,4.056995344175651],[30.658265295791114,4.056964033631111],[30.658296505699138,4.046116927870562]]],[[[30.66909832209699,4.046148154431902],[30.679900222354085,4.046179236934494],[30.679869299744784,4.0570265102740075],[30.669067255835557,4.056995344175651],[30.66909832209699,4.046148154431902]]],[[[30.679900222354085,4.046179236934494],[30.69070220608268,4.046210175372824],[30.690671427131008,4.0570575319206466],[30.679869299744784,4.0570265102740075],[30.679900222354085,4.046179236934494]]],[[[30.69070220608268,4.046210175372824],[30.701504272894994,4.046240969741395],[30.70147363760643,4.0570884091100625],[30.690671427131008,4.0570575319206466],[30.69070220608268,4.046210175372824]]],[[[30.658265295791114,4.056964033631111],[30.669067255835557,4.056995344175651],[30.669036105709342,4.067842530770665],[30.65823400163054,4.067811136240785],[30.658265295791114,4.056964033631111]]],[[[30.669067255835557,4.056995344175651],[30.679869299744784,4.0570265102740075],[30.679838293658477,4.067873780466916],[30.669036105709342,4.067842530770665],[30.669067255835557,4.056995344175651]]],[[[30.679869299744784,4.0570265102740075],[30.690671427131008,4.0570575319206466],[30.690640565090128,4.067904885323988],[30.679838293658477,4.067873780466916],[30.679869299744784,4.0570265102740075]]],[[[30.690671427131008,4.0570575319206466],[30.70147363760643,4.0570884091100625],[30.70144291961648,4.067935845336361],[30.690640565090128,4.067904885323988],[30.690671427131008,4.0570575319206466]]],[[[30.65823400163054,4.067811136240785],[30.669036105709342,4.067842530770665],[30.669004871712794,4.078689714208568],[30.65820262321184,4.078658235691199],[30.65823400163054,4.067811136240785]]],[[[30.669036105709342,4.067842530770665],[30.679838293658477,4.067873780466916],[30.67980720408965,4.07872104750485],[30.669004871712794,4.078689714208568],[30.669036105709342,4.067842530770665]]],[[[30.679838293658477,4.067873780466916],[30.690640565090128,4.067904885323988],[30.690609619954547,4.078752235574484],[30.67980720408965,4.07872104750485],[30.679838293658477,4.067873780466916]]],[[[30.690640565090128,4.067904885323988],[30.70144291961648,4.067935845336361],[30.701412118919663,4.078783278411931],[30.690609619954547,4.078752235574484],[30.690640565090128,4.067904885323988]]],[[[30.65820262321184,4.078658235691199],[30.669004871712794,4.078689714208568],[30.66897355384036,4.089536894480987],[30.658171160529427,4.089505331973976],[30.65820262321184,4.078658235691199]]],[[[30.669004871712794,4.078689714208568],[30.67980720408965,4.07872104750485],[30.67977603103276,4.089568311379445],[30.66897355384036,4.089536894480987],[30.669004871712794,4.078689714208568]]],[[[30.67980720408965,4.07872104750485],[30.690609619954547,4.078752235574484],[30.690578591718765,4.089599582663773],[30.67977603103276,4.089568311379445],[30.67980720408965,4.07872104750485]]],[[[30.690609619954547,4.078752235574484],[30.701412118919663,4.078783278411931],[30.701381235510503,4.089630708328418],[30.690578591718765,4.089599582663773],[30.690609619954547,4.078752235574484]]],[[[30.658171160529427,4.089505331973976],[30.66897355384036,4.089536894480987],[30.66894215208645,4.100384071579549],[30.658139613577706,4.100352425080739],[30.658171160529427,4.089505331973976]]],[[[30.66897355384036,4.089536894480987],[30.67977603103276,4.089568311379445],[30.67974477448226,4.100415572082331],[30.66894215208645,4.100384071579549],[30.66897355384036,4.089536894480987]]],[[[30.67977603103276,4.089568311379445],[30.690578591718765,4.089599582663773],[30.690547480377244,4.100446926583491],[30.67974477448226,4.100415572082331],[30.67977603103276,4.089568311379445]]],[[[30.690578591718765,4.089599582663773],[30.701381235510503,4.089630708328418],[30.701350269383497,4.100478135077463],[30.690547480377244,4.100446926583491],[30.690578591718765,4.089599582663773]]],[[[30.658139613577706,4.100352425080739],[30.66894215208645,4.100384071579549],[30.66891066644548,4.1112312454958815],[30.658107982351044,4.111199515003105],[30.658139613577706,4.100352425080739]]],[[[30.66894215208645,4.100384071579549],[30.67974477448226,4.100415572082331],[30.679713434432585,4.111262829605143],[30.66891066644548,4.1112312454958815],[30.66894215208645,4.100384071579549]]],[[[30.67974477448226,4.100415572082331],[30.690547480377244,4.100446926583491],[30.69051628592444,4.11129426732528],[30.679713434432585,4.111262829605143],[30.67974477448226,4.100415572082331]]],[[[30.690547480377244,4.100446926583491],[30.701350269383497,4.100478135077463],[30.701319220533133,4.111325558650715],[30.69051628592444,4.11129426732528],[30.690547480377244,4.100446926583491]]]]},"properties":{"id":"36N_block_20_37_10","kind":"block","zone":36,"block_patches":10,"p2016":525,"p2018":416,"p2019":415,"p2023":396}},{"type":"Feature","geometry":{"type":"Polygon","coordinates":[[[30.658296505699138,4.046116927870562],[30.66909832209699,4.046148154431902],[30.669067255835557,4.056995344175651],[30.658265295791114,4.056964033631111],[30.658296505699138,4.046116927870562]]]},"properties":{"id":"36N_240000_447600_1200","kind":"patch","zone":36,"minx":240000,"miny":447600,"p2016":16,"p2018":1,"p2019":1,"p2023":2}},{"type":"Feature","geometry":{"type":"Polygon","coordinates":[[[30.66909832209699,4.046148154431902],[30.679900222354085,4.046179236934494],[30.679869299744784,4.0570265102740075],[30.669067255835557,4.056995344175651],[30.66909832209699,4.046148154431902]]]},"properties":{"id":"36N_241200_447600_1200","kind":"patch","zone":36,"minx":241200,"miny":447600,"p2016":9,"p2018":1,"p2019":1,"p2023":0}},{"type":"Feature","geometry":{"type":"Polygon","coordinates":[[[30.679900222354085,4.046179236934494],[30.69070220608268,4.046210175372824],[30.690671427131008,4.0570575319206466],[30.679869299744784,4.0570265102740075],[30.679900222354085,4.046179236934494]]]},"properties":{"id":"36N_242400_447600_1200","kind":"patch","zone":36,"minx":242400,"miny":447600,"p2016":10,"p2018":2,"p2019":1,"p2023":2}},{"type":"Feature","geometry":{"type":"Polygon","coordinates":[[[30.69070220608268,4.046210175372824],[30.701504272894994,4.046240969741395],[30.70147363760643,4.0570884091100625],[30.690671427131008,4.0570575319206466],[30.69070220608268,4.046210175372824]]]},"properties":{"id":"36N_243600_447600_1200","kind":"patch","zone":36,"minx":243600,"miny":447600,"p2016":0,"p2018":0,"p2019":0,"p2023":0}},{"type":"Feature","geometry":{"type":"Polygon","coordinates":[[[30.658265295791114,4.056964033631111],[30.669067255835557,4.056995344175651],[30.669036105709342,4.067842530770665],[30.65823400163054,4.067811136240785],[30.658265295791114,4.056964033631111]]]},"properties":{"id":"36N_240000_448800_1200","kind":"patch","zone":36,"minx":240000,"miny":448800,"p2016":153,"p2018":96,"p2019":68,"p2023":45}},{"type":"Feature","geometry":{"type":"Polygon","coordinates":[[[30.669067255835557,4.056995344175651],[30.679869299744784,4.0570265102740075],[30.679838293658477,4.067873780466916],[30.669036105709342,4.067842530770665],[30.669067255835557,4.056995344175651]]]},"properties":{"id":"36N_241200_448800_1200","kind":"patch","zone":36,"minx":241200,"miny":448800,"p2016":166,"p2018":97,"p2019":78,"p2023":48}},{"type":"Feature","geometry":{"type":"Polygon","coordinates":[[[30.679869299744784,4.0570265102740075],[30.690671427131008,4.0570575319206466],[30.690640565090128,4.067904885323988],[30.679838293658477,4.067873780466916],[30.679869299744784,4.0570265102740075]]]},"properties":{"id":"36N_242400_448800_1200","kind":"patch","zone":36,"minx":242400,"miny":448800,"p2016":69,"p2018":38,"p2019":37,"p2023":21}},{"type":"Feature","geometry":{"type":"Polygon","coordinates":[[[30.690671427131008,4.0570575319206466],[30.70147363760643,4.0570884091100625],[30.70144291961648,4.067935845336361],[30.690640565090128,4.067904885323988],[30.690671427131008,4.0570575319206466]]]},"properties":{"id":"36N_243600_448800_1200","kind":"patch","zone":36,"minx":243600,"miny":448800,"p2016":9,"p2018":2,"p2019":2,"p2023":1}},{"type":"Feature","geometry":{"type":"Polygon","coordinates":[[[30.65823400163054,4.067811136240785],[30.669036105709342,4.067842530770665],[30.669004871712794,4.078689714208568],[30.65820262321184,4.078658235691199],[30.65823400163054,4.067811136240785]]]},"properties":{"id":"36N_240000_450000_1200","kind":"patch","zone":36,"minx":240000,"miny":450000,"p2016":459,"p2018":268,"p2019":251,"p2023":248}},{"type":"Feature","geometry":{"type":"Polygon","coordinates":[[[30.669036105709342,4.067842530770665],[30.679838293658477,4.067873780466916],[30.67980720408965,4.07872104750485],[30.669004871712794,4.078689714208568],[30.669036105709342,4.067842530770665]]]},"properties":{"id":"36N_241200_450000_1200","kind":"patch","zone":36,"minx":241200,"miny":450000,"p2016":569,"p2018":317,"p2019":294,"p2023":243}},{"type":"Feature","geometry":{"type":"Polygon","coordinates":[[[30.679838293658477,4.067873780466916],[30.690640565090128,4.067904885323988],[30.690609619954547,4.078752235574484],[30.67980720408965,4.07872104750485],[30.679838293658477,4.067873780466916]]]},"properties":{"id":"36N_242400_450000_1200","kind":"patch","zone":36,"minx":242400,"miny":450000,"p2016":284,"p2018":148,"p2019":144,"p2023":126}},{"type":"Feature","geometry":{"type":"Polygon","coordinates":[[[30.690640565090128,4.067904885323988],[30.70144291961648,4.067935845336361],[30.701412118919663,4.078783278411931],[30.690609619954547,4.078752235574484],[30.690640565090128,4.067904885323988]]]},"properties":{"id":"36N_243600_450000_1200","kind":"patch","zone":36,"minx":243600,"miny":450000,"p2016":25,"p2018":19,"p2019":20,"p2023":14}},{"type":"Feature","geometry":{"type":"Polygon","coordinates":[[[30.65820262321184,4.078658235691199],[30.669004871712794,4.078689714208568],[30.66897355384036,4.089536894480987],[30.658171160529427,4.089505331973976],[30.65820262321184,4.078658235691199]]]},"properties":{"id":"36N_240000_451200_1200","kind":"patch","zone":36,"minx":240000,"miny":451200,"p2016":692,"p2018":626,"p2019":673,"p2023":695}},{"type":"Feature","geometry":{"type":"Polygon","coordinates":[[[30.669004871712794,4.078689714208568],[30.67980720408965,4.07872104750485],[30.67977603103276,4.089568311379445],[30.66897355384036,4.089536894480987],[30.669004871712794,4.078689714208568]]]},"properties":{"id":"36N_241200_451200_1200","kind":"patch","zone":36,"minx":241200,"miny":451200,"p2016":1197,"p2018":912,"p2019":924,"p2023":954}},{"type":"Feature","geometry":{"type":"Polygon","coordinates":[[[30.67980720408965,4.07872104750485],[30.690609619954547,4.078752235574484],[30.690578591718765,4.089599582663773],[30.67977603103276,4.089568311379445],[30.67980720408965,4.07872104750485]]]},"properties":{"id":"36N_242400_451200_1200","kind":"patch","zone":36,"minx":242400,"miny":451200,"p2016":850,"p2018":670,"p2019":703,"p2023":681}},{"type":"Feature","geometry":{"type":"Polygon","coordinates":[[[30.690609619954547,4.078752235574484],[30.701412118919663,4.078783278411931],[30.701381235510503,4.089630708328418],[30.690578591718765,4.089599582663773],[30.690609619954547,4.078752235574484]]]},"properties":{"id":"36N_243600_451200_1200","kind":"patch","zone":36,"minx":243600,"miny":451200,"p2016":270,"p2018":224,"p2019":224,"p2023":205}},{"type":"Feature","geometry":{"type":"Polygon","coordinates":[[[30.658171160529427,4.089505331973976],[30.66897355384036,4.089536894480987],[30.66894215208645,4.100384071579549],[30.658139613577706,4.100352425080739],[30.658171160529427,4.089505331973976]]]},"properties":{"id":"36N_240000_452400_1200","kind":"patch","zone":36,"minx":240000,"miny":452400,"p2016":734,"p2018":664,"p2019":678,"p2023":667}},{"type":"Feature","geometry":{"type":"Polygon","coordinates":[[[30.66897355384036,4.089536894480987],[30.67977603103276,4.089568311379445],[30.67974477448226,4.100415572082331],[30.66894215208645,4.100384071579549],[30.66897355384036,4.089536894480987]]]},"properties":{"id":"36N_241200_452400_1200","kind":"patch","zone":36,"minx":241200,"miny":452400,"p2016":1992,"p2018":1858,"p2019":1790,"p2023":1741}},{"type":"Feature","geometry":{"type":"Polygon","coordinates":[[[30.67977603103276,4.089568311379445],[30.690578591718765,4.089599582663773],[30.690547480377244,4.100446926583491],[30.67974477448226,4.100415572082331],[30.67977603103276,4.089568311379445]]]},"properties":{"id":"36N_242400_452400_1200","kind":"patch","zone":36,"minx":242400,"miny":452400,"p2016":1402,"p2018":1225,"p2019":1224,"p2023":1150}},{"type":"Feature","geometry":{"type":"Polygon","coordinates":[[[30.690578591718765,4.089599582663773],[30.701381235510503,4.089630708328418],[30.701350269383497,4.100478135077463],[30.690547480377244,4.100446926583491],[30.690578591718765,4.089599582663773]]]},"properties":{"id":"36N_243600_452400_1200","kind":"patch","zone":36,"minx":243600,"miny":452400,"p2016":675,"p2018":528,"p2019":502,"p2023":460}},{"type":"Feature","geometry":{"type":"Polygon","coordinates":[[[30.658139613577706,4.100352425080739],[30.66894215208645,4.100384071579549],[30.66891066644548,4.1112312454958815],[30.658107982351044,4.111199515003105],[30.658139613577706,4.100352425080739]]]},"properties":{"id":"36N_240000_453600_1200","kind":"patch","zone":36,"minx":240000,"miny":453600,"p2016":610,"p2018":515,"p2019":544,"p2023":519}},{"type":"Feature","geometry":{"type":"Polygon","coordinates":[[[30.66894215208645,4.100384071579549],[30.67974477448226,4.100415572082331],[30.679713434432585,4.111262829605143],[30.66891066644548,4.1112312454958815],[30.66894215208645,4.100384071579549]]]},"properties":{"id":"36N_241200_453600_1200","kind":"patch","zone":36,"minx":241200,"miny":453600,"p2016":1205,"p2018":933,"p2019":955,"p2023":880}},{"type":"Feature","geometry":{"type":"Polygon","coordinates":[[[30.67974477448226,4.100415572082331],[30.690547480377244,4.100446926583491],[30.69051628592444,4.11129426732528],[30.679713434432585,4.111262829605143],[30.67974477448226,4.100415572082331]]]},"properties":{"id":"36N_242400_453600_1200","kind":"patch","zone":36,"minx":242400,"miny":453600,"p2016":974,"p2018":697,"p2019":712,"p2023":661}},{"type":"Feature","geometry":{"type":"Polygon","coordinates":[[[30.690547480377244,4.100446926583491],[30.701350269383497,4.100478135077463],[30.701319220533133,4.111325558650715],[30.69051628592444,4.11129426732528],[30.690547480377244,4.100446926583491]]]},"properties":{"id":"36N_243600_453600_1200","kind":"patch","zone":36,"minx":243600,"miny":453600,"p2016":222,"p2018":145,"p2019":134,"p2023":134}}]}
